{"type":"FeatureCollection","features":[{"type":"Feature","properties":{"ST_NAME":"ANDHRA PRADESH","DIST_NAME":"SRIKAKULAM","AC_NO":120,"AC_NAME":"Ichchapuram","PC_NAME":"SRIKAKULAM"},"geometry":{"type":"Polygon","coordinates":[[[84.7647,19.0773],[84.6678,19.1296],[84.602,19.1278],[84.618,19.0662],[84.5166,19.048],[84.4661,18.9942],[84.4659,18.9636],[84.527,18.8596],[84.576,18.8421],[84.6036,18.8898],[84.6844,18.9675],[84.7647,19.0773]]]}},{"type":"Feature","properties":{"ST_NAME":"ANDHRA PRADESH","DIST_NAME":"VIZIANAGARAM","AC_NO":130,"AC_NAME":"Kurupam (St)","PC_NAME":"VIZIANAGARAM"},"geometry":{"type":"Polygon","coordinates":[[[83.5862,19.0873],[83.5749,19.0614],[83.4833,19.0336],[83.4636,18.9553],[83.348,19.0169],[83.3104,18.9989],[83.397,18.8791],[83.3792,18.8309],[83.45,18.7957],[83.4263,18.7407],[83.432,18.694],[83.5416,18.6861],[83.5388,18.7109],[83.6904,18.8056],[83.7361,18.779],[83.7562,18.8266],[83.8072,18.8491],[83.7538,18.9252],[83.6372,19.1536],[83.5862,19.0873]]]}},{"type":"Feature","properties":{"ST_NAME":"ANDHRA PRADESH","DIST_NAME":"SRIKAKULAM","AC_NO":121,"AC_NAME":"Palasa","PC_NAME":"SRIKAKULAM"},"geometry":{"type":"Polygon","coordinates":[[[84.4661,18.9942],[84.4252,18.9504],[84.4394,18.9273],[84.3743,18.8618],[84.3371,18.8894],[84.3594,18.8316],[84.3618,18.7788],[84.3187,18.7474],[84.3839,18.7491],[84.3943,18.6867],[84.3516,18.6385],[84.364,18.5867],[84.4372,18.658],[84.4937,18.7409],[84.5515,18.7906],[84.576,18.8421],[84.527,18.8596],[84.4659,18.9636],[84.4661,18.9942]]]}},{"type":"Feature","properties":{"ST_NAME":"ANDHRA PRADESH","DIST_NAME":"SRIKAKULAM","AC_NO":129,"AC_NAME":"Palakonda (St)","PC_NAME":"SRIKAKULAM"},"geometry":{"type":"Polygon","coordinates":[[[83.5388,18.7109],[83.6412,18.5828],[83.7546,18.5696],[83.8111,18.5743],[83.8337,18.5468],[83.907,18.5579],[83.8624,18.6095],[83.8682,18.7492],[83.8336,18.7604],[83.8905,18.8267],[83.8483,18.8645],[83.8489,18.8999],[83.7945,19.0176],[83.7451,18.9889],[83.7538,18.9252],[83.8072,18.8491],[83.7562,18.8266],[83.7361,18.779],[83.6904,18.8056],[83.5388,18.7109]]]}},{"type":"Feature","properties":{"ST_NAME":"ANDHRA PRADESH","DIST_NAME":"SRIKAKULAM","AC_NO":123,"AC_NAME":"Pathapatnam","PC_NAME":"SRIKAKULAM"},"geometry":{"type":"Polygon","coordinates":[[[84.3594,18.8316],[84.321,18.787],[84.2263,18.7988],[84.0894,18.7568],[84.0456,18.8129],[83.8905,18.8267],[83.8336,18.7604],[83.8682,18.7492],[83.8624,18.6095],[83.907,18.5579],[83.9726,18.5663],[84.0234,18.624],[83.9861,18.703],[84.0448,18.7097],[84.08,18.6873],[84.1053,18.6351],[84.15,18.6282],[84.2487,18.7169],[84.2583,18.7485],[84.3187,18.7474],[84.3618,18.7788],[84.3594,18.8316]]]}},{"type":"Feature","properties":{"ST_NAME":"ANDHRA PRADESH","DIST_NAME":"VIZIANAGARAM","AC_NO":131,"AC_NAME":"Parvathipuram (Sc)","PC_NAME":"VIZIANAGARAM"},"geometry":{"type":"Polygon","coordinates":[[[83.3792,18.8309],[83.2818,18.7958],[83.2201,18.7477],[83.2919,18.7122],[83.2985,18.6397],[83.3591,18.607],[83.4072,18.605],[83.4362,18.6336],[83.484,18.56],[83.5483,18.5373],[83.5416,18.6861],[83.432,18.694],[83.4263,18.7407],[83.45,18.7957],[83.3792,18.8309]]]}},{"type":"Feature","properties":{"ST_NAME":"ANDHRA PRADESH","DIST_NAME":"VIZIANAGARAM","AC_NO":132,"AC_NAME":"Salur (St)","PC_NAME":"VIZIANAGARAM"},"geometry":{"type":"Polygon","coordinates":[[[83.2201,18.7477],[83.1151,18.7681],[83.0917,18.7225],[83.058,18.6655],[83.0167,18.6501],[83.0152,18.6055],[83.0451,18.5443],[83.0935,18.5399],[83.0209,18.4563],[83.0758,18.4057],[83.1003,18.3599],[83.1531,18.3423],[83.171,18.3104],[83.255,18.282],[83.2787,18.307],[83.3223,18.425],[83.1862,18.4163],[83.194,18.5173],[83.2373,18.5295],[83.2262,18.5849],[83.2985,18.6397],[83.2919,18.7122],[83.2201,18.7477]]]}},{"type":"Feature","properties":{"ST_NAME":"ANDHRA PRADESH","DIST_NAME":"SRIKAKULAM","AC_NO":122,"AC_NAME":"Tekkali","PC_NAME":"SRIKAKULAM"},"geometry":{"type":"Polygon","coordinates":[[[84.3187,18.7474],[84.2583,18.7485],[84.2487,18.7169],[84.15,18.6282],[84.1573,18.5929],[84.1036,18.5464],[84.0796,18.4987],[84.1104,18.4257],[84.1629,18.4559],[84.2039,18.427],[84.3547,18.555],[84.364,18.5867],[84.3516,18.6385],[84.3943,18.6867],[84.3839,18.7491],[84.3187,18.7474]]]}},{"type":"Feature","properties":{"ST_NAME":"ANDHRA PRADESH","DIST_NAME":"SRIKAKULAM","AC_NO":127,"AC_NAME":"Narasannapeta","PC_NAME":"SRIKAKULAM"},"geometry":{"type":"Polygon","coordinates":[[[83.9726,18.5663],[83.9328,18.4966],[83.9392,18.4184],[84.0126,18.3506],[84.1288,18.3442],[84.2039,18.427],[84.1629,18.4559],[84.1104,18.4257],[84.0796,18.4987],[84.1036,18.5464],[84.1573,18.5929],[84.15,18.6282],[84.1053,18.6351],[84.08,18.6873],[84.0448,18.7097],[83.9861,18.703],[84.0234,18.624],[83.9726,18.5663]]]}},{"type":"Feature","properties":{"ST_NAME":"ANDHRA PRADESH","DIST_NAME":"SRIKAKULAM","AC_NO":128,"AC_NAME":"Rajam (Sc)","PC_NAME":"SRIKAKULAM"},"geometry":{"type":"Polygon","coordinates":[[[83.5416,18.6861],[83.5483,18.5373],[83.5918,18.5104],[83.5823,18.41],[83.6053,18.3843],[83.7286,18.4094],[83.7656,18.3839],[83.8355,18.4125],[83.832,18.4676],[83.7921,18.4939],[83.7546,18.5696],[83.6412,18.5828],[83.5388,18.7109],[83.5416,18.6861]]]}},{"type":"Feature","properties":{"ST_NAME":"ANDHRA PRADESH","DIST_NAME":"VIZIANAGARAM","AC_NO":133,"AC_NAME":"Bobbili","PC_NAME":"VIZIANAGARAM"},"geometry":{"type":"Polygon","coordinates":[[[83.2985,18.6397],[83.2262,18.5849],[83.2373,18.5295],[83.194,18.5173],[83.1862,18.4163],[83.3223,18.425],[83.4006,18.415],[83.4455,18.4487],[83.5332,18.4444],[83.5823,18.41],[83.5918,18.5104],[83.5483,18.5373],[83.484,18.56],[83.4362,18.6336],[83.4072,18.605],[83.3591,18.607],[83.2985,18.6397]]]}},{"type":"Feature","properties":{"ST_NAME":"ANDHRA PRADESH","DIST_NAME":"SRIKAKULAM","AC_NO":125,"AC_NAME":"Amadalavalasa","PC_NAME":"SRIKAKULAM"},"geometry":{"type":"Polygon","coordinates":[[[83.7546,18.5696],[83.7921,18.4939],[83.832,18.4676],[83.8355,18.4125],[83.7656,18.3839],[83.7587,18.354],[83.705,18.3354],[83.8018,18.2757],[83.8791,18.3339],[83.9392,18.4184],[83.9328,18.4966],[83.9726,18.5663],[83.907,18.5579],[83.8337,18.5468],[83.8111,18.5743],[83.7546,18.5696]]]}},{"type":"Feature","properties":{"ST_NAME":"ANDHRA PRADESH","DIST_NAME":"VISHAKHAPATNAM","AC_NO":147,"AC_NAME":"Araku Valley (St)","PC_NAME":"VISHAKHAPATNAM"},"geometry":{"type":"Polygon","coordinates":[[[83.0758,18.4057],[82.9704,18.3601],[82.8942,18.3816],[82.8713,18.4185],[82.8031,18.4493],[82.7742,18.3405],[82.6438,18.288],[82.5878,18.2761],[82.6212,18.3597],[82.5409,18.3995],[82.5292,18.5028],[82.4817,18.5414],[82.4091,18.4694],[82.382,18.4326],[82.3923,18.298],[82.3446,18.2806],[82.3154,18.1841],[82.3533,18.1717],[82.3357,18.1059],[82.3503,18.0777],[82.4201,18.0836],[82.4482,18.1137],[82.5783,18.1034],[82.6203,18.1149],[82.712,18.1016],[82.8031,18.0116],[82.8826,18.0109],[82.9687,17.9922],[83.0095,18.0646],[83.0738,18.0855],[83.1236,18.0966],[83.0723,18.1755],[83.1231,18.1925],[83.2031,18.194],[83.252,18.2279],[83.255,18.282],[83.171,18.3104],[83.1531,18.3423],[83.1003,18.3599],[83.0758,18.4057]]]}},{"type":"Feature","properties":{"ST_NAME":"ANDHRA PRADESH","DIST_NAME":"VIZIANAGARAM","AC_NO":135,"AC_NAME":"Gajapathinagaram","PC_NAME":"VIZIANAGARAM"},"geometry":{"type":"Polygon","coordinates":[[[83.255,18.282],[83.252,18.2279],[83.2031,18.194],[83.2322,18.1557],[83.2211,18.0316],[83.3157,18.0536],[83.32,18.1082],[83.3656,18.1276],[83.3852,18.1669],[83.4079,18.248],[83.438,18.2854],[83.4309,18.3832],[83.4114,18.4146],[83.4455,18.4487],[83.4006,18.415],[83.3223,18.425],[83.2787,18.307],[83.255,18.282]]]}},{"type":"Feature","properties":{"ST_NAME":"ANDHRA PRADESH","DIST_NAME":"SRIKAKULAM","AC_NO":126,"AC_NAME":"Etcherla","PC_NAME":"SRIKAKULAM"},"geometry":{"type":"Polygon","coordinates":[[[83.6053,18.3843],[83.5852,18.354],[83.6734,18.2824],[83.6665,18.2325],[83.5778,18.2071],[83.6099,18.1928],[83.6219,18.1147],[83.6677,18.0795],[83.7506,18.1293],[83.949,18.2164],[83.8886,18.29],[83.8791,18.3339],[83.8018,18.2757],[83.705,18.3354],[83.7587,18.354],[83.7656,18.3839],[83.7286,18.4094],[83.6053,18.3843]]]}},{"type":"Feature","properties":{"ST_NAME":"ANDHRA PRADESH","DIST_NAME":"SRIKAKULAM","AC_NO":124,"AC_NAME":"Srikakulam","PC_NAME":"SRIKAKULAM"},"geometry":{"type":"Polygon","coordinates":[[[83.9392,18.4184],[83.8791,18.3339],[83.8886,18.29],[83.949,18.2164],[84.1258,18.3112],[84.1288,18.3442],[84.0126,18.3506],[83.9392,18.4184]]]}},{"type":"Feature","properties":{"ST_NAME":"ANDHRA PRADESH","DIST_NAME":"SRIKAKULAM","AC_NO":134,"AC_NAME":"Cheepurupalle","PC_NAME":"SRIKAKULAM"},"geometry":{"type":"Polygon","coordinates":[[[83.5823,18.41],[83.5332,18.4444],[83.4455,18.4487],[83.4114,18.4146],[83.4309,18.3832],[83.438,18.2854],[83.4079,18.248],[83.4565,18.1816],[83.4974,18.1796],[83.5778,18.2071],[83.6665,18.2325],[83.6734,18.2824],[83.5852,18.354],[83.6053,18.3843],[83.5823,18.41]]]}},{"type":"Feature","properties":{"ST_NAME":"ANDHRA PRADESH","DIST_NAME":"VIZIANAGARAM","AC_NO":136,"AC_NAME":"Nellimarla","PC_NAME":"VIZIANAGARAM"},"geometry":{"type":"Polygon","coordinates":[[[83.3852,18.1669],[83.4319,18.1596],[83.454,18.1229],[83.4029,18.057],[83.4063,17.9638],[83.5246,17.9475],[83.5686,18.0099],[83.6677,18.0795],[83.6219,18.1147],[83.6099,18.1928],[83.5778,18.2071],[83.4974,18.1796],[83.4565,18.1816],[83.4079,18.248],[83.3852,18.1669]]]}},{"type":"Feature","properties":{"ST_NAME":"ANDHRA PRADESH","DIST_NAME":"VIZIANAGARAM","AC_NO":138,"AC_NAME":"Srungavarapukota","PC_NAME":"VIZIANAGARAM"},"geometry":{"type":"Polygon","coordinates":[[[83.0738,18.0855],[83.0138,18.051],[83.0061,17.9769],[83.1105,17.9397],[83.1291,17.8742],[83.1454,17.8454],[83.2052,17.8478],[83.2308,17.876],[83.2607,17.9158],[83.2426,17.9508],[83.3086,17.9843],[83.334,18.0462],[83.3157,18.0536],[83.2211,18.0316],[83.2322,18.1557],[83.2031,18.194],[83.1231,18.1925],[83.0723,18.1755],[83.1236,18.0966],[83.0738,18.0855]]]}},{"type":"Feature","properties":{"ST_NAME":"ANDHRA PRADESH","DIST_NAME":"VIZIANAGARAM","AC_NO":137,"AC_NAME":"Vizianagaram","PC_NAME":"VIZIANAGARAM"},"geometry":{"type":"Polygon","coordinates":[[[83.3157,18.0536],[83.334,18.0462],[83.4029,18.057],[83.454,18.1229],[83.4319,18.1596],[83.3852,18.1669],[83.3656,18.1276],[83.32,18.1082],[83.3157,18.0536]]]}},{"type":"Feature","properties":{"ST_NAME":"ANDHRA PRADESH","DIST_NAME":"VISHAKHAPATNAM","AC_NO":148,"AC_NAME":"Paderu (St)","PC_NAME":"VISHAKHAPATNAM"},"geometry":{"type":"Polygon","coordinates":[[[82.3503,18.0777],[82.2616,18.0419],[82.2495,17.9934],[82.1878,18.0148],[82.1688,18.052],[82.0062,18.0522],[81.9793,18.0143],[82.0277,17.9317],[82.0027,17.9009],[82.0196,17.8396],[81.88,17.7725],[81.8771,17.7417],[82.0181,17.7496],[82.0329,17.709],[82.0018,17.6392],[82.0161,17.6188],[82.09,17.6569],[82.1373,17.648],[82.1629,17.6106],[82.2281,17.6388],[82.3421,17.5752],[82.3858,17.5736],[82.473,17.6152],[82.4152,17.6653],[82.4747,17.7311],[82.5506,17.7016],[82.5783,17.7491],[82.6075,17.7563],[82.6836,17.8344],[82.7159,17.8573],[82.7092,17.8998],[82.7403,17.9387],[82.7979,17.9107],[82.8321,17.9171],[82.8826,18.0109],[82.8031,18.0116],[82.712,18.1016],[82.6203,18.1149],[82.5783,18.1034],[82.4482,18.1137],[82.4201,18.0836],[82.3503,18.0777]]]}},{"type":"Feature","properties":{"ST_NAME":"ANDHRA PRADESH","DIST_NAME":"VISHAKHAPATNAM","AC_NO":146,"AC_NAME":"Madugula","PC_NAME":"VISHAKHAPATNAM"},"geometry":{"type":"Polygon","coordinates":[[[82.8826,18.0109],[82.8321,17.9171],[82.7979,17.9107],[82.7403,17.9387],[82.7092,17.8998],[82.7159,17.8573],[82.6836,17.8344],[82.815,17.8216],[82.8707,17.8446],[82.9857,17.8689],[82.9696,17.8288],[83.0297,17.8207],[83.1075,17.8486],[83.1291,17.8742],[83.1105,17.9397],[83.0061,17.9769],[83.0138,18.051],[83.0738,18.0855],[83.0095,18.0646],[82.9687,17.9922],[82.8826,18.0109]]]}},{"type":"Feature","properties":{"ST_NAME":"ANDHRA PRADESH","DIST_NAME":"VISHAKHAPATNAM","AC_NO":139,"AC_NAME":"Bhimili","PC_NAME":"VISHAKHAPATNAM"},"geometry":{"type":"Polygon","coordinates":[[[83.4029,18.057],[83.334,18.0462],[83.3086,17.9843],[83.2426,17.9508],[83.2607,17.9158],[83.2308,17.876],[83.264,17.8171],[83.1912,17.765],[83.1975,17.729],[83.1985,17.7272],[83.2161,17.7307],[83.2891,17.7319],[83.3248,17.7135],[83.4114,17.8099],[83.4203,17.8571],[83.5246,17.9475],[83.4063,17.9638],[83.4029,18.057]]]}},{"type":"Feature","properties":{"ST_NAME":"ANDHRA PRADESH","DIST_NAME":"EAST GODAVARI","AC_NO":172,"AC_NAME":"Rampachodavaram(St)","PC_NAME":"EAST GODAVARI"},"geometry":{"type":"Polygon","coordinates":[[[81.4983,17.4815],[81.5409,17.4369],[81.5759,17.4331],[81.6149,17.3314],[81.6794,17.3017],[81.6573,17.2683],[81.6914,17.2241],[81.77,17.2375],[81.8212,17.254],[81.8321,17.3001],[82.0217,17.291],[82.078,17.2684],[82.0436,17.314],[82.0541,17.3802],[82.168,17.3615],[82.2707,17.4391],[82.2797,17.4638],[82.3319,17.5048],[82.3421,17.5752],[82.2281,17.6388],[82.1629,17.6106],[82.1373,17.648],[82.09,17.6569],[82.0161,17.6188],[82.0018,17.6392],[82.0329,17.709],[82.0181,17.7496],[81.8771,17.7417],[81.88,17.7725],[82.0196,17.8396],[82.0027,17.9009],[82.0277,17.9317],[81.9793,18.0143],[81.9037,17.9767],[81.8099,17.951],[81.7633,17.9026],[81.8114,17.8595],[81.712,17.8103],[81.699,17.7824],[81.634,17.7737],[81.5835,17.7324],[81.5816,17.6932],[81.5165,17.6003],[81.5246,17.5048],[81.4983,17.4815]]]}},{"type":"Feature","properties":{"ST_NAME":"ANDHRA PRADESH","DIST_NAME":"VISHAKHAPATNAM","AC_NO":145,"AC_NAME":"Chodavaram","PC_NAME":"VISHAKHAPATNAM"},"geometry":{"type":"Polygon","coordinates":[[[82.5783,17.7491],[82.6644,17.6642],[82.7591,17.6954],[82.8109,17.6727],[82.8883,17.6675],[82.9181,17.7039],[82.9117,17.7562],[83.0175,17.7728],[83.0297,17.8207],[82.9696,17.8288],[82.9857,17.8689],[82.8707,17.8446],[82.815,17.8216],[82.6836,17.8344],[82.6075,17.7563],[82.5783,17.7491]]]}},{"type":"Feature","properties":{"ST_NAME":"ANDHRA PRADESH","DIST_NAME":"VISHAKHAPATNAM","AC_NO":150,"AC_NAME":"Pendurthi","PC_NAME":"VISHAKHAPATNAM"},"geometry":{"type":"Polygon","coordinates":[[[83.1291,17.8742],[83.1075,17.8486],[83.0297,17.8207],[83.0175,17.7728],[83.078,17.7477],[83.0509,17.6598],[83.0454,17.5911],[83.0661,17.525],[83.1619,17.5601],[83.238,17.6123],[83.282,17.6606],[83.276,17.6691],[83.1981,17.6815],[83.1387,17.6435],[83.1284,17.7153],[83.1975,17.729],[83.1912,17.765],[83.264,17.8171],[83.2308,17.876],[83.2052,17.8478],[83.1454,17.8454],[83.1291,17.8742]]]}},{"type":"Feature","properties":{"ST_NAME":"ANDHRA PRADESH","DIST_NAME":"VISHAKHAPATNAM","AC_NO":149,"AC_NAME":"Anakapalle","PC_NAME":"VISHAKHAPATNAM"},"geometry":{"type":"Polygon","coordinates":[[[82.8109,17.6727],[82.8037,17.5933],[82.9098,17.6099],[82.979,17.6666],[83.0509,17.6598],[83.078,17.7477],[83.0175,17.7728],[82.9117,17.7562],[82.9181,17.7039],[82.8883,17.6675],[82.8109,17.6727]]]}},{"type":"Feature","properties":{"ST_NAME":"ANDHRA PRADESH","DIST_NAME":"VISHAKHAPATNAM","AC_NO":142,"AC_NAME":"Visakhapatnam North","PC_NAME":"VISHAKHAPATNAM"},"geometry":{"type":"Polygon","coordinates":[[[83.2161,17.7307],[83.2624,17.7094],[83.2914,17.7131],[83.2891,17.7319],[83.2161,17.7307]]]}},{"type":"Feature","properties":{"ST_NAME":"ANDHRA PRADESH","DIST_NAME":"VISHAKHAPATNAM","AC_NO":153,"AC_NAME":"Narsipatnam","PC_NAME":"VISHAKHAPATNAM"},"geometry":{"type":"Polygon","coordinates":[[[82.3421,17.5752],[82.3319,17.5048],[82.4103,17.467],[82.4497,17.5115],[82.517,17.502],[82.5521,17.5277],[82.6023,17.5635],[82.6905,17.6023],[82.7217,17.5704],[82.7885,17.5587],[82.8037,17.5933],[82.8109,17.6727],[82.7591,17.6954],[82.6644,17.6642],[82.5783,17.7491],[82.5506,17.7016],[82.4747,17.7311],[82.4152,17.6653],[82.473,17.6152],[82.3858,17.5736],[82.3421,17.5752]]]}},{"type":"Feature","properties":{"ST_NAME":"ANDHRA PRADESH","DIST_NAME":"VISHAKHAPATNAM","AC_NO":140,"AC_NAME":"Visakhapatnam East","PC_NAME":"VISHAKHAPATNAM"},"geometry":{"type":"Polygon","coordinates":[[[83.2891,17.7319],[83.2914,17.7131],[83.2965,17.6933],[83.3248,17.7135],[83.2891,17.7319]]]}},{"type":"Feature","properties":{"ST_NAME":"ANDHRA PRADESH","DIST_NAME":"VISHAKHAPATNAM","AC_NO":143,"AC_NAME":"Visakhapatnam West","PC_NAME":"VISHAKHAPATNAM"},"geometry":{"type":"Polygon","coordinates":[[[83.1985,17.7272],[83.1981,17.6815],[83.276,17.6691],[83.2624,17.7094],[83.2161,17.7307],[83.1985,17.7272]]]}},{"type":"Feature","properties":{"ST_NAME":"ANDHRA PRADESH","DIST_NAME":"VISHAKHAPATNAM","AC_NO":144,"AC_NAME":"Gajuwaka","PC_NAME":"VISHAKHAPATNAM"},"geometry":{"type":"Polygon","coordinates":[[[83.1975,17.729],[83.1284,17.7153],[83.1387,17.6435],[83.1981,17.6815],[83.1985,17.7272],[83.1975,17.729]]]}},{"type":"Feature","properties":{"ST_NAME":"ANDHRA PRADESH","DIST_NAME":"VISHAKHAPATNAM","AC_NO":151,"AC_NAME":"Yelamanchili","PC_NAME":"VISHAKHAPATNAM"},"geometry":{"type":"Polygon","coordinates":[[[83.0509,17.6598],[82.979,17.6666],[82.9098,17.6099],[82.8037,17.5933],[82.7885,17.5587],[82.7424,17.5055],[82.8173,17.4822],[82.8988,17.4321],[82.992,17.4725],[83.0661,17.525],[83.0454,17.5911],[83.0509,17.6598]]]}},{"type":"Feature","properties":{"ST_NAME":"ANDHRA PRADESH","DIST_NAME":"VISHAKHAPATNAM","AC_NO":152,"AC_NAME":"Payakaraopet (Sc)","PC_NAME":"VISHAKHAPATNAM"},"geometry":{"type":"Polygon","coordinates":[[[82.5521,17.5277],[82.6048,17.4596],[82.5429,17.3749],[82.5598,17.3423],[82.5181,17.2987],[82.5424,17.2489],[82.703,17.3439],[82.8988,17.4321],[82.8173,17.4822],[82.7424,17.5055],[82.7885,17.5587],[82.7217,17.5704],[82.6905,17.6023],[82.6023,17.5635],[82.5521,17.5277]]]}},{"type":"Feature","properties":{"ST_NAME":"ANDHRA PRADESH","DIST_NAME":"EAST GODAVARI","AC_NO":154,"AC_NAME":"Tuni","PC_NAME":"EAST GODAVARI"},"geometry":{"type":"Polygon","coordinates":[[[82.2797,17.4638],[82.3282,17.3786],[82.4425,17.36],[82.3587,17.2807],[82.3542,17.232],[82.3653,17.1842],[82.4441,17.1755],[82.5424,17.2489],[82.5181,17.2987],[82.5598,17.3423],[82.5429,17.3749],[82.6048,17.4596],[82.5521,17.5277],[82.517,17.502],[82.4497,17.5115],[82.4103,17.467],[82.3319,17.5048],[82.2797,17.4638]]]}},{"type":"Feature","properties":{"ST_NAME":"ANDHRA PRADESH","DIST_NAME":"WEST GODAVARI","AC_NO":186,"AC_NAME":"Polavaram (St)","PC_NAME":"WEST GODAVARI"},"geometry":{"type":"Polygon","coordinates":[[[81.4956,17.4774],[81.487,17.4352],[81.424,17.3676],[81.3797,17.3635],[81.3342,17.3986],[81.274,17.3175],[81.1904,17.3251],[81.1736,17.231],[81.0794,17.2154],[81.032,17.1921],[81.0389,17.0817],[81.0707,17.0387],[81.2247,17.0363],[81.2239,17.0885],[81.1728,17.1401],[81.1757,17.1658],[81.273,17.1687],[81.3197,17.1041],[81.3741,17.1193],[81.4003,17.0893],[81.3448,17.0463],[81.3578,17.0211],[81.4485,17.0721],[81.4775,17.1412],[81.4665,17.1699],[81.5447,17.2109],[81.613,17.1679],[81.6635,17.1517],[81.6407,17.2073],[81.6573,17.2683],[81.6794,17.3017],[81.6149,17.3314],[81.5759,17.4331],[81.5409,17.4369],[81.4983,17.4815],[81.4956,17.4774]]]}},{"type":"Feature","properties":{"ST_NAME":"ANDHRA PRADESH","DIST_NAME":"EAST GODAVARI","AC_NO":155,"AC_NAME":"Prathipadu","PC_NAME":"EAST GODAVARI"},"geometry":{"type":"Polygon","coordinates":[[[82.078,17.2684],[82.1442,17.2139],[82.2013,17.2144],[82.2382,17.2339],[82.3542,17.232],[82.3587,17.2807],[82.4425,17.36],[82.3282,17.3786],[82.2797,17.4638],[82.2707,17.4391],[82.168,17.3615],[82.0541,17.3802],[82.0436,17.314],[82.078,17.2684]]]}},{"type":"Feature","properties":{"ST_NAME":"ANDHRA PRADESH","DIST_NAME":"EAST GODAVARI","AC_NO":171,"AC_NAME":"Jaggampeta","PC_NAME":"EAST GODAVARI"},"geometry":{"type":"Polygon","coordinates":[[[81.77,17.2375],[81.8205,17.1757],[81.9024,17.1681],[81.9195,17.0957],[81.9941,17.113],[82.0569,17.0713],[82.1119,17.1669],[82.1814,17.1476],[82.2013,17.2144],[82.1442,17.2139],[82.078,17.2684],[82.0217,17.291],[81.8321,17.3001],[81.8212,17.254],[81.77,17.2375]]]}},{"type":"Feature","properties":{"ST_NAME":"ANDHRA PRADESH","DIST_NAME":"EAST GODAVARI","AC_NO":168,"AC_NAME":"Rajanagaram","PC_NAME":"EAST GODAVARI"},"geometry":{"type":"Polygon","coordinates":[[[81.6573,17.2683],[81.6407,17.2073],[81.6635,17.1517],[81.6807,17.0948],[81.7227,17.051],[81.7614,17.0783],[81.7842,17.0302],[81.8237,17.0034],[81.8569,16.924],[81.9369,16.9399],[81.9647,17.0455],[81.9195,17.0957],[81.9024,17.1681],[81.8205,17.1757],[81.77,17.2375],[81.6914,17.2241],[81.6573,17.2683]]]}},{"type":"Feature","properties":{"ST_NAME":"ANDHRA PRADESH","DIST_NAME":"EAST GODAVARI","AC_NO":156,"AC_NAME":"Pithapuram","PC_NAME":"EAST GODAVARI"},"geometry":{"type":"Polygon","coordinates":[[[82.3542,17.232],[82.2382,17.2339],[82.2013,17.2144],[82.1814,17.1476],[82.1768,17.0854],[82.2601,17.0677],[82.307,17.0424],[82.4441,17.1755],[82.3653,17.1842],[82.3542,17.232]]]}},{"type":"Feature","properties":{"ST_NAME":"ANDHRA PRADESH","DIST_NAME":"WEST GODAVARI","AC_NO":187,"AC_NAME":"Chintalapudi (Sc)","PC_NAME":"WEST GODAVARI"},"geometry":{"type":"Polygon","coordinates":[[[80.9354,17.2202],[80.9238,17.1577],[80.8795,17.1606],[80.877,17.0702],[80.9429,17.0671],[80.9643,17.0329],[80.9342,16.9599],[80.983,16.8742],[81.0562,16.868],[81.0872,16.9131],[81.1862,16.8728],[81.2558,17.024],[81.3448,17.0463],[81.4003,17.0893],[81.3741,17.1193],[81.3197,17.1041],[81.273,17.1687],[81.1757,17.1658],[81.1728,17.1401],[81.2239,17.0885],[81.2247,17.0363],[81.0707,17.0387],[81.0389,17.0817],[81.032,17.1921],[80.9354,17.2202]]]}},{"type":"Feature","properties":{"ST_NAME":"ANDHRA PRADESH","DIST_NAME":"WEST GODAVARI","AC_NO":185,"AC_NAME":"Gopalapuram (Sc)","PC_NAME":"WEST GODAVARI"},"geometry":{"type":"Polygon","coordinates":[[[81.3448,17.0463],[81.2558,17.024],[81.1862,16.8728],[81.2186,16.8461],[81.2901,16.8458],[81.3225,16.8283],[81.3625,16.8978],[81.4578,16.8925],[81.483,16.941],[81.5336,16.9427],[81.5632,16.9544],[81.5985,17.0112],[81.613,17.1679],[81.5447,17.2109],[81.4665,17.1699],[81.4775,17.1412],[81.4485,17.0721],[81.3578,17.0211],[81.3448,17.0463]]]}},{"type":"Feature","properties":{"ST_NAME":"ANDHRA PRADESH","DIST_NAME":"EAST GODAVARI","AC_NO":158,"AC_NAME":"Peddapuram","PC_NAME":"EAST GODAVARI"},"geometry":{"type":"Polygon","coordinates":[[[82.0569,17.0713],[82.0546,17.0092],[82.0739,16.9565],[82.1639,16.9932],[82.1999,16.9858],[82.2028,17.0155],[82.2601,17.0677],[82.1768,17.0854],[82.1814,17.1476],[82.1119,17.1669],[82.0569,17.0713]]]}},{"type":"Feature","properties":{"ST_NAME":"ANDHRA PRADESH","DIST_NAME":"WEST GODAVARI","AC_NO":173,"AC_NAME":"Kovvur (Sc)","PC_NAME":"WEST GODAVARI"},"geometry":{"type":"Polygon","coordinates":[[[81.613,17.1679],[81.5985,17.0112],[81.5632,16.9544],[81.6039,16.9227],[81.7244,16.9149],[81.7428,17.0018],[81.7227,17.051],[81.6807,17.0948],[81.6635,17.1517],[81.613,17.1679]]]}},{"type":"Feature","properties":{"ST_NAME":"ANDHRA PRADESH","DIST_NAME":"KRISHNA","AC_NO":188,"AC_NAME":"Tiruvuru (Sc)","PC_NAME":"KRISHNA"},"geometry":{"type":"Polygon","coordinates":[[[80.3944,17.0764],[80.3958,17.0358],[80.365,16.9753],[80.4474,16.9559],[80.5354,16.9612],[80.6022,16.9188],[80.595,16.8841],[80.6496,16.8623],[80.6696,16.8999],[80.712,16.8972],[80.7158,16.9717],[80.7471,16.9738],[80.7997,16.8914],[80.8302,16.9455],[80.8303,17.0015],[80.7966,17.0622],[80.6704,17.1012],[80.58,17.1534],[80.5277,17.1193],[80.5055,17.0691],[80.4386,17.0379],[80.4121,17.0925],[80.3944,17.0764]]]}},{"type":"Feature","properties":{"ST_NAME":"ANDHRA PRADESH","DIST_NAME":"EAST GODAVARI","AC_NO":159,"AC_NAME":"Anaparthy","PC_NAME":"EAST GODAVARI"},"geometry":{"type":"Polygon","coordinates":[[[81.9195,17.0957],[81.9647,17.0455],[81.9369,16.9399],[81.9403,16.8945],[81.9745,16.8438],[82.0042,16.8946],[82.052,16.8571],[82.0908,16.8654],[82.1417,16.8817],[82.1858,16.9376],[82.1999,16.9858],[82.1639,16.9932],[82.0739,16.9565],[82.0546,17.0092],[82.0569,17.0713],[81.9941,17.113],[81.9195,17.0957]]]}},{"type":"Feature","properties":{"ST_NAME":"ANDHRA PRADESH","DIST_NAME":"EAST GODAVARI","AC_NO":169,"AC_NAME":"Rajahmundry City","PC_NAME":"EAST GODAVARI"},"geometry":{"type":"Polygon","coordinates":[[[81.7227,17.051],[81.7428,17.0018],[81.7857,16.9466],[81.8237,17.0034],[81.7842,17.0302],[81.7614,17.0783],[81.7227,17.051]]]}},{"type":"Feature","properties":{"ST_NAME":"ANDHRA PRADESH","DIST_NAME":"KRISHNA","AC_NO":189,"AC_NAME":"Nuzvid","PC_NAME":"KRISHNA"},"geometry":{"type":"Polygon","coordinates":[[[80.7966,17.0622],[80.8303,17.0015],[80.8302,16.9455],[80.7997,16.8914],[80.8182,16.8275],[80.7779,16.8142],[80.7396,16.7266],[80.7081,16.6996],[80.707,16.627],[80.7839,16.6328],[80.841,16.6188],[80.8854,16.6435],[80.9317,16.7033],[80.9542,16.6711],[81.0173,16.7771],[81.0428,16.7855],[80.983,16.8742],[80.9342,16.9599],[80.9643,17.0329],[80.9429,17.0671],[80.877,17.0702],[80.8452,17.0396],[80.7966,17.0622]]]}},{"type":"Feature","properties":{"ST_NAME":"ANDHRA PRADESH","DIST_NAME":"EAST GODAVARI","AC_NO":157,"AC_NAME":"Kakinada Rural","PC_NAME":"EAST GODAVARI"},"geometry":{"type":"Polygon","coordinates":[[[82.2601,17.0677],[82.2028,17.0155],[82.1999,16.9858],[82.1858,16.9376],[82.1417,16.8817],[82.0908,16.8654],[82.1956,16.845],[82.2524,16.8958],[82.2495,16.9356],[82.2271,16.9385],[82.2342,16.9567],[82.2575,16.9372],[82.307,17.0424],[82.2601,17.0677]]]}},{"type":"Feature","properties":{"ST_NAME":"ANDHRA PRADESH","DIST_NAME":"KRISHNA","AC_NO":203,"AC_NAME":"Jaggayyapeta","PC_NAME":"KRISHNA"},"geometry":{"type":"Polygon","coordinates":[[[80.0563,16.9708],[80.014,16.9039],[80.0023,16.8714],[80.0729,16.8182],[80.1315,16.7885],[80.2669,16.7937],[80.3218,16.8793],[80.2831,17.0078],[80.2641,16.9976],[80.1702,17.0169],[80.1203,16.9879],[80.0563,16.9708]]]}},{"type":"Feature","properties":{"ST_NAME":"ANDHRA PRADESH","DIST_NAME":"EAST GODAVARI","AC_NO":170,"AC_NAME":"Rajahmundry Rural","PC_NAME":"EAST GODAVARI"},"geometry":{"type":"Polygon","coordinates":[[[81.8237,17.0034],[81.7857,16.9466],[81.81,16.8417],[81.869,16.8285],[81.8801,16.8582],[81.8569,16.924],[81.8237,17.0034]]]}},{"type":"Feature","properties":{"ST_NAME":"ANDHRA PRADESH","DIST_NAME":"EAST GODAVARI","AC_NO":166,"AC_NAME":"Kothapeta","PC_NAME":"EAST GODAVARI"},"geometry":{"type":"Polygon","coordinates":[[[81.7244,16.9149],[81.7467,16.8666],[81.7445,16.7935],[81.7909,16.7455],[81.8021,16.694],[81.8446,16.6412],[81.9631,16.6828],[81.9151,16.7159],[81.9317,16.7933],[81.869,16.8285],[81.81,16.8417],[81.7857,16.9466],[81.7428,17.0018],[81.7244,16.9149]]]}},{"type":"Feature","properties":{"ST_NAME":"ANDHRA PRADESH","DIST_NAME":"EAST GODAVARI","AC_NO":162,"AC_NAME":"Mummidivaram","PC_NAME":"EAST GODAVARI"},"geometry":{"type":"Polygon","coordinates":[[[82.1956,16.845],[82.2191,16.7641],[82.1401,16.7342],[82.1633,16.6819],[82.0661,16.6728],[82.086,16.6321],[82.0434,16.6037],[82.135,16.5715],[82.1738,16.5112],[82.3231,16.5778],[82.3172,16.662],[82.3659,16.7068],[82.3443,16.7441],[82.3494,16.8506],[82.2524,16.8958],[82.1956,16.845]],[[82.226,16.7586],[82.2435,16.7223],[82.2038,16.7177],[82.226,16.7586]]]}},{"type":"Feature","properties":{"ST_NAME":"ANDHRA PRADESH","DIST_NAME":"KRISHNA","AC_NO":201,"AC_NAME":"Mylavaram","PC_NAME":"KRISHNA"},"geometry":{"type":"Polygon","coordinates":[[[80.5033,16.7799],[80.5112,16.7114],[80.4103,16.5848],[80.4672,16.5907],[80.554,16.5422],[80.5788,16.5972],[80.6437,16.6478],[80.6683,16.6938],[80.7081,16.6996],[80.7396,16.7266],[80.7779,16.8142],[80.8182,16.8275],[80.7997,16.8914],[80.7471,16.9738],[80.7158,16.9717],[80.712,16.8972],[80.6696,16.8999],[80.6496,16.8623],[80.595,16.8841],[80.5689,16.8697],[80.597,16.7929],[80.5701,16.7688],[80.5033,16.7799]]]}},{"type":"Feature","properties":{"ST_NAME":"ANDHRA PRADESH","DIST_NAME":"EAST GODAVARI","AC_NO":167,"AC_NAME":"Mandapeta","PC_NAME":"EAST GODAVARI"},"geometry":{"type":"Polygon","coordinates":[[[81.8569,16.924],[81.8801,16.8582],[81.869,16.8285],[81.9317,16.7933],[81.9151,16.7159],[81.9631,16.6828],[82.0158,16.7054],[82.0281,16.7911],[82.0075,16.8233],[82.052,16.8571],[82.0042,16.8946],[81.9745,16.8438],[81.9403,16.8945],[81.9369,16.9399],[81.8569,16.924]]]}},{"type":"Feature","properties":{"ST_NAME":"ANDHRA PRADESH","DIST_NAME":"WEST GODAVARI","AC_NO":181,"AC_NAME":"Tadepalligudem","PC_NAME":"WEST GODAVARI"},"geometry":{"type":"Polygon","coordinates":[[[81.4578,16.8925],[81.4917,16.8036],[81.4434,16.7218],[81.5125,16.7337],[81.5894,16.7186],[81.6023,16.8014],[81.6384,16.8167],[81.6194,16.8876],[81.5714,16.8976],[81.5336,16.9427],[81.483,16.941],[81.4578,16.8925]]]}},{"type":"Feature","properties":{"ST_NAME":"ANDHRA PRADESH","DIST_NAME":"EAST GODAVARI","AC_NO":160,"AC_NAME":"Kakinada City","PC_NAME":"EAST GODAVARI"},"geometry":{"type":"Polygon","coordinates":[[[82.2495,16.9356],[82.2575,16.9372],[82.2342,16.9567],[82.2271,16.9385],[82.2495,16.9356]]]}},{"type":"Feature","properties":{"ST_NAME":"ANDHRA PRADESH","DIST_NAME":"WEST GODAVARI","AC_NO":174,"AC_NAME":"Nidadavole","PC_NAME":"WEST GODAVARI"},"geometry":{"type":"Polygon","coordinates":[[[81.5336,16.9427],[81.5714,16.8976],[81.6194,16.8876],[81.6384,16.8167],[81.6306,16.7823],[81.674,16.7578],[81.724,16.7586],[81.7608,16.6708],[81.8021,16.694],[81.7909,16.7455],[81.7445,16.7935],[81.7467,16.8666],[81.7244,16.9149],[81.6039,16.9227],[81.5632,16.9544],[81.5336,16.9427]]]}},{"type":"Feature","properties":{"ST_NAME":"ANDHRA PRADESH","DIST_NAME":"WEST GODAVARI","AC_NO":183,"AC_NAME":"Denduluru","PC_NAME":"WEST GODAVARI"},"geometry":{"type":"Polygon","coordinates":[[[80.983,16.8742],[81.0428,16.7855],[81.0173,16.7771],[80.9542,16.6711],[81.0114,16.5605],[81.0497,16.5703],[81.0916,16.6057],[81.0628,16.6894],[81.0716,16.7774],[81.1151,16.7257],[81.1783,16.6852],[81.2423,16.7068],[81.211,16.7635],[81.2186,16.8461],[81.1862,16.8728],[81.0872,16.9131],[81.0562,16.868],[80.983,16.8742]]]}},{"type":"Feature","properties":{"ST_NAME":"ANDHRA PRADESH","DIST_NAME":"WEST GODAVARI","AC_NO":182,"AC_NAME":"Ungutur","PC_NAME":"WEST GODAVARI"},"geometry":{"type":"Polygon","coordinates":[[[81.2186,16.8461],[81.211,16.7635],[81.2423,16.7068],[81.2353,16.665],[81.279,16.6513],[81.3316,16.6594],[81.4353,16.6564],[81.4678,16.6749],[81.5276,16.6658],[81.5423,16.6371],[81.5894,16.7186],[81.5125,16.7337],[81.4434,16.7218],[81.4917,16.8036],[81.4578,16.8925],[81.3625,16.8978],[81.3225,16.8283],[81.2901,16.8458],[81.2186,16.8461]]]}},{"type":"Feature","properties":{"ST_NAME":"ANDHRA PRADESH","DIST_NAME":"KRISHNA","AC_NO":202,"AC_NAME":"Nandigama (Sc)","PC_NAME":"KRISHNA"},"geometry":{"type":"Polygon","coordinates":[[[80.3218,16.8793],[80.2669,16.7937],[80.1315,16.7885],[80.1489,16.688],[80.141,16.6506],[80.2526,16.6111],[80.3313,16.6118],[80.3889,16.5861],[80.4103,16.5848],[80.5112,16.7114],[80.5033,16.7799],[80.465,16.8203],[80.3218,16.8793]]]}},{"type":"Feature","properties":{"ST_NAME":"ANDHRA PRADESH","DIST_NAME":"EAST GODAVARI","AC_NO":161,"AC_NAME":"Ramachandrapuram","PC_NAME":"EAST GODAVARI"},"geometry":{"type":"Polygon","coordinates":[[[82.052,16.8571],[82.0075,16.8233],[82.0281,16.7911],[82.0158,16.7054],[82.0661,16.6728],[82.1633,16.6819],[82.1401,16.7342],[82.2191,16.7641],[82.1956,16.845],[82.0908,16.8654],[82.052,16.8571]]]}},{"type":"Feature","properties":{"ST_NAME":"ANDHRA PRADESH","DIST_NAME":"GUNTUR","AC_NO":204,"AC_NAME":"Pedakurapadu","PC_NAME":"GUNTUR"},"geometry":{"type":"Polygon","coordinates":[[[80.0729,16.8182],[80.0529,16.7444],[79.9975,16.7023],[79.9616,16.6429],[79.9076,16.6357],[79.9096,16.5639],[79.9955,16.5169],[79.9581,16.4734],[80.0668,16.462],[80.1583,16.508],[80.271,16.4122],[80.3211,16.4573],[80.386,16.4709],[80.3889,16.5861],[80.3313,16.6118],[80.2526,16.6111],[80.141,16.6506],[80.1489,16.688],[80.1315,16.7885],[80.0729,16.8182]]]}},{"type":"Feature","properties":{"ST_NAME":"ANDHRA PRADESH","DIST_NAME":"WEST GODAVARI","AC_NO":180,"AC_NAME":"Tanuku","PC_NAME":"WEST GODAVARI"},"geometry":{"type":"Polygon","coordinates":[[[81.5894,16.7186],[81.5423,16.6371],[81.5982,16.5998],[81.6108,16.6213],[81.6298,16.6668],[81.6738,16.6817],[81.6982,16.6363],[81.7608,16.6708],[81.724,16.7586],[81.674,16.7578],[81.6306,16.7823],[81.6384,16.8167],[81.6023,16.8014],[81.5894,16.7186]]]}},{"type":"Feature","properties":{"ST_NAME":"ANDHRA PRADESH","DIST_NAME":"WEST GODAVARI","AC_NO":184,"AC_NAME":"Eluru","PC_NAME":"WEST GODAVARI"},"geometry":{"type":"Polygon","coordinates":[[[81.0916,16.6057],[81.1156,16.5926],[81.189,16.6216],[81.2282,16.5739],[81.279,16.6513],[81.2353,16.665],[81.2423,16.7068],[81.1783,16.6852],[81.1151,16.7257],[81.0716,16.7774],[81.0628,16.6894],[81.0916,16.6057]]]}},{"type":"Feature","properties":{"ST_NAME":"ANDHRA PRADESH","DIST_NAME":"GUNTUR","AC_NO":219,"AC_NAME":"Gurajala","PC_NAME":"GUNTUR"},"geometry":{"type":"Polygon","coordinates":[[[79.5254,16.631],[79.5266,16.5984],[79.5787,16.5633],[79.5519,16.5077],[79.5914,16.4426],[79.672,16.5135],[79.7663,16.5061],[79.7585,16.4306],[79.7772,16.3713],[79.8211,16.3504],[79.8671,16.4348],[79.9581,16.4734],[79.9955,16.5169],[79.9096,16.5639],[79.9076,16.6357],[79.8784,16.697],[79.8173,16.6922],[79.7859,16.7305],[79.6988,16.6917],[79.6331,16.6606],[79.5973,16.6731],[79.5254,16.631]]]}},{"type":"Feature","properties":{"ST_NAME":"ANDHRA PRADESH","DIST_NAME":"KRISHNA","AC_NO":190,"AC_NAME":"Gannavaram","PC_NAME":"KRISHNA"},"geometry":{"type":"Polygon","coordinates":[[[80.7081,16.6996],[80.6683,16.6938],[80.6437,16.6478],[80.5788,16.5972],[80.554,16.5422],[80.555,16.5344],[80.5911,16.5159],[80.626,16.5574],[80.6855,16.5451],[80.8127,16.5107],[80.84,16.475],[80.9025,16.4532],[80.9333,16.5453],[80.9739,16.5381],[81.0114,16.5605],[80.9542,16.6711],[80.9317,16.7033],[80.8854,16.6435],[80.841,16.6188],[80.7839,16.6328],[80.707,16.627],[80.7081,16.6996]]]}},{"type":"Feature","properties":{"ST_NAME":"ANDHRA PRADESH","DIST_NAME":"EAST GODAVARI","AC_NO":165,"AC_NAME":"Gannavaram (Sc)","PC_NAME":"EAST GODAVARI"},"geometry":{"type":"Polygon","coordinates":[[[81.8446,16.6412],[81.8584,16.5979],[81.8449,16.5296],[81.8484,16.5055],[81.8813,16.4963],[81.9645,16.5308],[81.961,16.5748],[81.9895,16.6138],[82.0434,16.6037],[82.086,16.6321],[82.0661,16.6728],[82.0158,16.7054],[81.9631,16.6828],[81.8446,16.6412]]]}},{"type":"Feature","properties":{"ST_NAME":"ANDHRA PRADESH","DIST_NAME":"KRISHNA","AC_NO":192,"AC_NAME":"Kaikalur","PC_NAME":"KRISHNA"},"geometry":{"type":"Polygon","coordinates":[[[81.0497,16.5703],[81.1071,16.5583],[81.1114,16.5036],[81.0623,16.4061],[81.1386,16.3831],[81.1994,16.3843],[81.2507,16.4157],[81.3995,16.4316],[81.3933,16.4401],[81.3707,16.4998],[81.3384,16.5052],[81.349,16.5652],[81.3316,16.6594],[81.279,16.6513],[81.2282,16.5739],[81.189,16.6216],[81.1156,16.5926],[81.0916,16.6057],[81.0497,16.5703]]]}},{"type":"Feature","properties":{"ST_NAME":"ANDHRA PRADESH","DIST_NAME":"WEST GODAVARI","AC_NO":175,"AC_NAME":"Achanta","PC_NAME":"WEST GODAVARI"},"geometry":{"type":"Polygon","coordinates":[[[81.8021,16.694],[81.7608,16.6708],[81.6982,16.6363],[81.6738,16.6817],[81.6298,16.6668],[81.6108,16.6213],[81.6732,16.6126],[81.679,16.5808],[81.734,16.5154],[81.7656,16.5065],[81.8449,16.5296],[81.8584,16.5979],[81.8446,16.6412],[81.8021,16.694]]]}},{"type":"Feature","properties":{"ST_NAME":"ANDHRA PRADESH","DIST_NAME":"WEST GODAVARI","AC_NO":179,"AC_NAME":"Undi","PC_NAME":"WEST GODAVARI"},"geometry":{"type":"Polygon","coordinates":[[[81.3316,16.6594],[81.349,16.5652],[81.3384,16.5052],[81.3707,16.4998],[81.3933,16.4401],[81.453,16.473],[81.5114,16.5743],[81.5514,16.5503],[81.6136,16.5625],[81.5982,16.5998],[81.5423,16.6371],[81.5276,16.6658],[81.4678,16.6749],[81.4353,16.6564],[81.3316,16.6594]]]}},{"type":"Feature","properties":{"ST_NAME":"ANDHRA PRADESH","DIST_NAME":"GUNTUR","AC_NO":220,"AC_NAME":"Macherla","PC_NAME":"GUNTUR"},"geometry":{"type":"Polygon","coordinates":[[[79.4616,16.6231],[79.4184,16.58],[79.3178,16.5746],[79.2571,16.5661],[79.2214,16.5155],[79.2107,16.3567],[79.2343,16.3349],[79.2158,16.2271],[79.2219,16.1636],[79.3256,16.2285],[79.3712,16.233],[79.4473,16.3029],[79.5465,16.2896],[79.5878,16.3441],[79.6413,16.3798],[79.6979,16.3636],[79.7772,16.3713],[79.7585,16.4306],[79.7663,16.5061],[79.672,16.5135],[79.5914,16.4426],[79.5519,16.5077],[79.5787,16.5633],[79.5266,16.5984],[79.5254,16.631],[79.4616,16.6231]]]}},{"type":"Feature","properties":{"ST_NAME":"ANDHRA PRADESH","DIST_NAME":"WEST GODAVARI","AC_NO":178,"AC_NAME":"Bhimavaram","PC_NAME":"WEST GODAVARI"},"geometry":{"type":"Polygon","coordinates":[[[81.5982,16.5998],[81.6136,16.5625],[81.5514,16.5503],[81.5114,16.5743],[81.453,16.473],[81.3933,16.4401],[81.3995,16.4316],[81.4803,16.3881],[81.4975,16.4209],[81.5809,16.4351],[81.6322,16.489],[81.6344,16.5318],[81.679,16.5808],[81.6732,16.6126],[81.6108,16.6213],[81.5982,16.5998]]]}},{"type":"Feature","properties":{"ST_NAME":"ANDHRA PRADESH","DIST_NAME":"EAST GODAVARI","AC_NO":163,"AC_NAME":"Amalapuram (Sc)","PC_NAME":"EAST GODAVARI"},"geometry":{"type":"Polygon","coordinates":[[[82.0434,16.6037],[81.9895,16.6138],[81.961,16.5748],[81.9645,16.5308],[81.9578,16.3975],[82.1738,16.5112],[82.135,16.5715],[82.0434,16.6037]]]}},{"type":"Feature","properties":{"ST_NAME":"ANDHRA PRADESH","DIST_NAME":"GUNTUR","AC_NO":205,"AC_NAME":"Tadikonda (Sc)","PC_NAME":"GUNTUR"},"geometry":{"type":"Polygon","coordinates":[[[80.4103,16.5848],[80.3889,16.5861],[80.386,16.4709],[80.3211,16.4573],[80.271,16.4122],[80.2153,16.385],[80.205,16.3302],[80.1179,16.2869],[80.127,16.2681],[80.2145,16.2495],[80.2827,16.2619],[80.3263,16.3083],[80.3506,16.2806],[80.3627,16.3111],[80.426,16.3451],[80.48,16.3772],[80.5166,16.3742],[80.4868,16.4541],[80.5214,16.4685],[80.555,16.5344],[80.554,16.5422],[80.4672,16.5907],[80.4103,16.5848]]]}},{"type":"Feature","properties":{"ST_NAME":"ANDHRA PRADESH","DIST_NAME":"WEST GODAVARI","AC_NO":176,"AC_NAME":"Palacole","PC_NAME":"WEST GODAVARI"},"geometry":{"type":"Polygon","coordinates":[[[81.8449,16.5296],[81.7656,16.5065],[81.734,16.5154],[81.679,16.5808],[81.6344,16.5318],[81.6322,16.489],[81.7301,16.4362],[81.8484,16.5055],[81.8449,16.5296]]]}},{"type":"Feature","properties":{"ST_NAME":"ANDHRA PRADESH","DIST_NAME":"KRISHNA","AC_NO":199,"AC_NAME":"Vijayawada Central","PC_NAME":"KRISHNA"},"geometry":{"type":"Polygon","coordinates":[[[80.626,16.5574],[80.6426,16.5059],[80.6838,16.5391],[80.6855,16.5451],[80.626,16.5574]]]}},{"type":"Feature","properties":{"ST_NAME":"ANDHRA PRADESH","DIST_NAME":"KRISHNA","AC_NO":191,"AC_NAME":"Gudivada","PC_NAME":"KRISHNA"},"geometry":{"type":"Polygon","coordinates":[[[81.0114,16.5605],[80.9739,16.5381],[80.9813,16.4504],[80.9693,16.3885],[81.0013,16.3823],[81.0457,16.2832],[81.1386,16.3831],[81.0623,16.4061],[81.1114,16.5036],[81.1071,16.5583],[81.0497,16.5703],[81.0114,16.5605]]]}},{"type":"Feature","properties":{"ST_NAME":"ANDHRA PRADESH","DIST_NAME":"KRISHNA","AC_NO":198,"AC_NAME":"Vijayawada West","PC_NAME":"KRISHNA"},"geometry":{"type":"Polygon","coordinates":[[[80.5911,16.5159],[80.6286,16.4947],[80.6426,16.5059],[80.626,16.5574],[80.5911,16.5159]]]}},{"type":"Feature","properties":{"ST_NAME":"ANDHRA PRADESH","DIST_NAME":"EAST GODAVARI","AC_NO":164,"AC_NAME":"Razole (Sc)","PC_NAME":"EAST GODAVARI"},"geometry":{"type":"Polygon","coordinates":[[[81.8484,16.5055],[81.7301,16.4362],[81.6976,16.4159],[81.7138,16.3133],[81.8662,16.3792],[81.9578,16.3975],[81.9645,16.5308],[81.8813,16.4963],[81.8484,16.5055]]]}},{"type":"Feature","properties":{"ST_NAME":"ANDHRA PRADESH","DIST_NAME":"KRISHNA","AC_NO":196,"AC_NAME":"Pamarru (Sc)","PC_NAME":"KRISHNA"},"geometry":{"type":"Polygon","coordinates":[[[80.9025,16.4532],[80.9202,16.3957],[80.8534,16.3552],[80.7503,16.4138],[80.7266,16.3788],[80.7484,16.3298],[80.7979,16.2832],[80.8027,16.2426],[80.8236,16.2178],[80.893,16.2206],[80.9809,16.1942],[81.0283,16.2273],[81.0457,16.2832],[81.0013,16.3823],[80.9693,16.3885],[80.9813,16.4504],[80.9739,16.5381],[80.9333,16.5453],[80.9025,16.4532]]]}},{"type":"Feature","properties":{"ST_NAME":"ANDHRA PRADESH","DIST_NAME":"KRISHNA","AC_NO":197,"AC_NAME":"Penamaluru","PC_NAME":"KRISHNA"},"geometry":{"type":"Polygon","coordinates":[[[80.6855,16.5451],[80.6838,16.5391],[80.6546,16.4791],[80.6742,16.4248],[80.7266,16.3788],[80.7503,16.4138],[80.8534,16.3552],[80.9202,16.3957],[80.9025,16.4532],[80.84,16.475],[80.8127,16.5107],[80.6855,16.5451]]]}},{"type":"Feature","properties":{"ST_NAME":"ANDHRA PRADESH","DIST_NAME":"KRISHNA","AC_NO":200,"AC_NAME":"Vijayawada East","PC_NAME":"KRISHNA"},"geometry":{"type":"Polygon","coordinates":[[[80.6426,16.5059],[80.6286,16.4947],[80.6546,16.4791],[80.6838,16.5391],[80.6426,16.5059]]]}},{"type":"Feature","properties":{"ST_NAME":"ANDHRA PRADESH","DIST_NAME":"GUNTUR","AC_NO":206,"AC_NAME":"Mangalagiri","PC_NAME":"GUNTUR"},"geometry":{"type":"Polygon","coordinates":[[[80.555,16.5344],[80.5214,16.4685],[80.4868,16.4541],[80.5166,16.3742],[80.5617,16.3587],[80.5662,16.3168],[80.6134,16.3186],[80.6737,16.2918],[80.7266,16.3788],[80.6742,16.4248],[80.6546,16.4791],[80.6286,16.4947],[80.5911,16.5159],[80.555,16.5344]]]}},{"type":"Feature","properties":{"ST_NAME":"ANDHRA PRADESH","DIST_NAME":"GUNTUR","AC_NO":217,"AC_NAME":"Sattenapalle","PC_NAME":"GUNTUR"},"geometry":{"type":"Polygon","coordinates":[[[79.9581,16.4734],[79.8671,16.4348],[79.8211,16.3504],[79.7942,16.3255],[79.8571,16.2797],[79.867,16.2463],[79.9086,16.2701],[79.9203,16.3227],[79.9855,16.2715],[80.1179,16.2869],[80.205,16.3302],[80.2153,16.385],[80.271,16.4122],[80.1583,16.508],[80.0668,16.462],[79.9581,16.4734]]]}},{"type":"Feature","properties":{"ST_NAME":"ANDHRA PRADESH","DIST_NAME":"WEST GODAVARI","AC_NO":177,"AC_NAME":"Narasapuram","PC_NAME":"WEST GODAVARI"},"geometry":{"type":"Polygon","coordinates":[[[81.4803,16.3881],[81.5554,16.3473],[81.6906,16.3278],[81.7138,16.3133],[81.6976,16.4159],[81.7301,16.4362],[81.6322,16.489],[81.5809,16.4351],[81.4975,16.4209],[81.4803,16.3881]]]}},{"type":"Feature","properties":{"ST_NAME":"ANDHRA PRADESH","DIST_NAME":"KRISHNA","AC_NO":193,"AC_NAME":"Pedana","PC_NAME":"KRISHNA"},"geometry":{"type":"Polygon","coordinates":[[[81.1386,16.3831],[81.0457,16.2832],[81.0283,16.2273],[80.9809,16.1942],[81.0483,16.1523],[81.1173,16.2318],[81.2522,16.3038],[81.265,16.2785],[81.3924,16.3427],[81.4872,16.3554],[81.5554,16.3473],[81.4803,16.3881],[81.3995,16.4316],[81.2507,16.4157],[81.1994,16.3843],[81.1386,16.3831]]]}},{"type":"Feature","properties":{"ST_NAME":"ANDHRA PRADESH","DIST_NAME":"GUNTUR","AC_NO":218,"AC_NAME":"Vinukonda","PC_NAME":"GUNTUR"},"geometry":{"type":"Polygon","coordinates":[[[79.7772,16.3713],[79.6979,16.3636],[79.6413,16.3798],[79.5878,16.3441],[79.5465,16.2896],[79.5666,16.2763],[79.5366,16.1429],[79.5474,16.0678],[79.5724,16.0048],[79.5595,15.9637],[79.6359,15.9073],[79.6933,15.8983],[79.7456,15.8256],[79.7554,15.8999],[79.7912,15.9411],[79.8699,15.9167],[79.9123,15.9673],[79.8698,16.0304],[79.9158,16.075],[79.8685,16.0963],[79.8782,16.1544],[79.8443,16.1686],[79.867,16.2463],[79.8571,16.2797],[79.7942,16.3255],[79.8211,16.3504],[79.7772,16.3713]]]}},{"type":"Feature","properties":{"ST_NAME":"ANDHRA PRADESH","DIST_NAME":"GUNTUR","AC_NO":214,"AC_NAME":"Guntur East","PC_NAME":"GUNTUR"},"geometry":{"type":"Polygon","coordinates":[[[80.426,16.3451],[80.4353,16.244],[80.4631,16.2358],[80.48,16.3772],[80.426,16.3451]]]}},{"type":"Feature","properties":{"ST_NAME":"ANDHRA PRADESH","DIST_NAME":"GUNTUR","AC_NO":207,"AC_NAME":"Ponnur","PC_NAME":"GUNTUR"},"geometry":{"type":"Polygon","coordinates":[[[80.48,16.3772],[80.4631,16.2358],[80.4978,16.1808],[80.479,16.127],[80.4655,16.0066],[80.5253,16.008],[80.5951,16.0426],[80.5941,16.1013],[80.5643,16.1466],[80.5805,16.2221],[80.596,16.2863],[80.5662,16.3168],[80.5617,16.3587],[80.5166,16.3742],[80.48,16.3772]]]}},{"type":"Feature","properties":{"ST_NAME":"ANDHRA PRADESH","DIST_NAME":"GUNTUR","AC_NO":210,"AC_NAME":"Tenali","PC_NAME":"GUNTUR"},"geometry":{"type":"Polygon","coordinates":[[[80.7266,16.3788],[80.6737,16.2918],[80.6134,16.3186],[80.5662,16.3168],[80.596,16.2863],[80.5805,16.2221],[80.6455,16.1919],[80.7539,16.2463],[80.8027,16.2426],[80.7979,16.2832],[80.7484,16.3298],[80.7266,16.3788]]]}},{"type":"Feature","properties":{"ST_NAME":"ANDHRA PRADESH","DIST_NAME":"GUNTUR","AC_NO":213,"AC_NAME":"Guntur West","PC_NAME":"GUNTUR"},"geometry":{"type":"Polygon","coordinates":[[[80.3627,16.3111],[80.409,16.2482],[80.4353,16.244],[80.426,16.3451],[80.3627,16.3111]]]}},{"type":"Feature","properties":{"ST_NAME":"ANDHRA PRADESH","DIST_NAME":"GUNTUR","AC_NO":216,"AC_NAME":"Narasaraopet","PC_NAME":"GUNTUR"},"geometry":{"type":"Polygon","coordinates":[[[80.1179,16.2869],[79.9855,16.2715],[79.9203,16.3227],[79.9086,16.2701],[79.867,16.2463],[79.8443,16.1686],[79.8782,16.1544],[79.9536,16.1522],[80.0508,16.1257],[80.127,16.2681],[80.1179,16.2869]]]}},{"type":"Feature","properties":{"ST_NAME":"ANDHRA PRADESH","DIST_NAME":"PRAKASAM","AC_NO":221,"AC_NAME":"Yerragondapalem (Sc)","PC_NAME":"PRAKASAM"},"geometry":{"type":"Polygon","coordinates":[[[78.9227,16.1269],[78.9311,16.0929],[78.9109,15.9688],[78.837,15.9071],[78.8098,15.8675],[78.7925,15.7721],[78.9096,15.7807],[78.9916,15.8066],[79.0324,15.7232],[79.1101,15.7364],[79.1557,15.6888],[79.178,15.7568],[79.2101,15.7903],[79.2913,15.756],[79.325,15.805],[79.3324,15.8276],[79.4748,15.9542],[79.5114,15.949],[79.5724,16.0048],[79.5474,16.0678],[79.5366,16.1429],[79.5666,16.2763],[79.5465,16.2896],[79.4473,16.3029],[79.3712,16.233],[79.3256,16.2285],[79.2219,16.1636],[79.2158,16.2271],[79.1592,16.209],[79.0128,16.2409],[78.9858,16.2111],[78.9055,16.1839],[78.9227,16.1269]]]}},{"type":"Feature","properties":{"ST_NAME":"ANDHRA PRADESH","DIST_NAME":"GUNTUR","AC_NO":212,"AC_NAME":"Prathipadu (Sc)","PC_NAME":"GUNTUR"},"geometry":{"type":"Polygon","coordinates":[[[80.3506,16.2806],[80.2603,16.1846],[80.2707,16.1208],[80.2195,16.0821],[80.2388,16.0448],[80.4262,15.9999],[80.4231,15.9738],[80.4655,16.0066],[80.479,16.127],[80.4978,16.1808],[80.4631,16.2358],[80.4353,16.244],[80.409,16.2482],[80.3627,16.3111],[80.3506,16.2806]]]}},{"type":"Feature","properties":{"ST_NAME":"ANDHRA PRADESH","DIST_NAME":"GUNTUR","AC_NO":215,"AC_NAME":"Chilakaluripet","PC_NAME":"GUNTUR"},"geometry":{"type":"Polygon","coordinates":[[[80.127,16.2681],[80.0508,16.1257],[80.0887,16.0181],[80.1373,16.0459],[80.2388,16.0448],[80.2195,16.0821],[80.2707,16.1208],[80.2603,16.1846],[80.3506,16.2806],[80.3263,16.3083],[80.2827,16.2619],[80.2145,16.2495],[80.127,16.2681]]]}},{"type":"Feature","properties":{"ST_NAME":"ANDHRA PRADESH","DIST_NAME":"KRISHNA","AC_NO":194,"AC_NAME":"Machilipatnam","PC_NAME":"KRISHNA"},"geometry":{"type":"Polygon","coordinates":[[[81.0483,16.1523],[80.9933,16.1505],[81.0164,16.0909],[81.0709,16.0562],[81.0741,16.0299],[81.0657,16.0109],[81.1171,16.0026],[81.1392,15.9696],[81.1474,16.02],[81.1956,16.1155],[81.2137,16.2076],[81.265,16.2785],[81.2522,16.3038],[81.1173,16.2318],[81.0483,16.1523]]]}},{"type":"Feature","properties":{"ST_NAME":"ANDHRA PRADESH","DIST_NAME":"GUNTUR","AC_NO":208,"AC_NAME":"Vemuru (Sc)","PC_NAME":"GUNTUR"},"geometry":{"type":"Polygon","coordinates":[[[80.8027,16.2426],[80.7539,16.2463],[80.6455,16.1919],[80.5805,16.2221],[80.5643,16.1466],[80.5941,16.1013],[80.5951,16.0426],[80.6141,16.0361],[80.6907,16.0691],[80.7907,16.0355],[80.877,16.0522],[80.8635,16.133],[80.8236,16.2178],[80.8027,16.2426]]]}},{"type":"Feature","properties":{"ST_NAME":"ANDHRA PRADESH","DIST_NAME":"KRISHNA","AC_NO":195,"AC_NAME":"Avanigadda","PC_NAME":"KRISHNA"},"geometry":{"type":"Polygon","coordinates":[[[80.8236,16.2178],[80.8635,16.133],[80.877,16.0522],[80.9032,15.9174],[80.8383,15.7633],[80.8326,15.707],[80.9388,15.7166],[81.0082,15.7541],[81.0009,15.8324],[81.1347,15.9664],[81.12,15.9935],[81.0913,16.0049],[81.075,15.9988],[81.0628,16.0135],[81.0712,16.0492],[81.0448,16.0579],[81.0164,16.0909],[80.9933,16.1505],[81.0483,16.1523],[80.9809,16.1942],[80.893,16.2206],[80.8236,16.2178]]]}},{"type":"Feature","properties":{"ST_NAME":"ANDHRA PRADESH","DIST_NAME":"KURNOOL","AC_NO":254,"AC_NAME":"Srisailam","PC_NAME":"KURNOOL"},"geometry":{"type":"Polygon","coordinates":[[[78.6857,16.0332],[78.5376,15.9157],[78.5379,15.8618],[78.5608,15.7938],[78.4996,15.7152],[78.4388,15.7033],[78.4811,15.6356],[78.4543,15.566],[78.5217,15.4623],[78.4997,15.4047],[78.5339,15.4377],[78.5904,15.3964],[78.6564,15.3952],[78.7713,15.4206],[78.7767,15.5337],[78.7715,15.6648],[78.7925,15.7721],[78.8098,15.8675],[78.837,15.9071],[78.9109,15.9688],[78.9311,16.0929],[78.9227,16.1269],[78.8331,16.1377],[78.8404,16.0785],[78.7919,16.0247],[78.7356,16.0085],[78.6857,16.0332]]]}},{"type":"Feature","properties":{"ST_NAME":"ANDHRA PRADESH","DIST_NAME":"PRAKASAM","AC_NO":224,"AC_NAME":"Addanki","PC_NAME":"PRAKASAM"},"geometry":{"type":"Polygon","coordinates":[[[79.8699,15.9167],[79.9364,15.8309],[79.9074,15.8158],[79.9087,15.7485],[79.8899,15.7041],[79.9595,15.7194],[80.0303,15.7106],[80.0965,15.6734],[80.1535,15.7244],[80.1339,15.8632],[80.0248,15.9203],[80.0256,15.9849],[80.0887,16.0181],[80.0508,16.1257],[79.9536,16.1522],[79.8782,16.1544],[79.8685,16.0963],[79.9158,16.075],[79.8698,16.0304],[79.9123,15.9673],[79.8699,15.9167]]]}},{"type":"Feature","properties":{"ST_NAME":"ANDHRA PRADESH","DIST_NAME":"KURNOOL","AC_NO":255,"AC_NAME":"Nandikotkur (Sc)","PC_NAME":"KURNOOL"},"geometry":{"type":"Polygon","coordinates":[[[78.6504,16.0728],[78.61,16.0874],[78.5499,16.043],[78.4749,16.0688],[78.408,16.0752],[78.2511,15.973],[78.2511,15.9351],[78.1845,15.9102],[78.1754,15.8584],[78.1343,15.8369],[78.1455,15.7487],[78.1916,15.6881],[78.2357,15.697],[78.3487,15.6511],[78.4028,15.7178],[78.4388,15.7033],[78.4996,15.7152],[78.5608,15.7938],[78.5379,15.8618],[78.5376,15.9157],[78.6857,16.0332],[78.6504,16.0728]]]}},{"type":"Feature","properties":{"ST_NAME":"ANDHRA PRADESH","DIST_NAME":"GUNTUR","AC_NO":209,"AC_NAME":"Repalle","PC_NAME":"GUNTUR"},"geometry":{"type":"Polygon","coordinates":[[[80.6141,16.0361],[80.6272,15.9593],[80.6502,15.9248],[80.6052,15.8707],[80.6859,15.8819],[80.7819,15.8633],[80.8326,15.707],[80.8383,15.7633],[80.9032,15.9174],[80.877,16.0522],[80.7907,16.0355],[80.6907,16.0691],[80.6141,16.0361]]]}},{"type":"Feature","properties":{"ST_NAME":"ANDHRA PRADESH","DIST_NAME":"KRISHNA","AC_NO":null,"AC_NAME":"AC 104","PC_NAME":"KRISHNA"},"geometry":{"type":"Polygon","coordinates":[[[81.0164,16.0909],[81.0448,16.0579],[81.0712,16.0492],[81.0628,16.0135],[81.075,15.9988],[81.0913,16.0049],[81.12,15.9935],[81.1347,15.9664],[81.1392,15.9696],[81.1171,16.0026],[81.0657,16.0109],[81.0741,16.0299],[81.0709,16.0562],[81.0164,16.0909]]]}},{"type":"Feature","properties":{"ST_NAME":"ANDHRA PRADESH","DIST_NAME":"PRAKASAM","AC_NO":223,"AC_NAME":"Parchur","PC_NAME":"PRAKASAM"},"geometry":{"type":"Polygon","coordinates":[[[80.2388,16.0448],[80.1373,16.0459],[80.0887,16.0181],[80.0256,15.9849],[80.0248,15.9203],[80.1339,15.8632],[80.1535,15.7244],[80.1741,15.7007],[80.1719,15.6266],[80.2401,15.6062],[80.3021,15.7091],[80.2693,15.7489],[80.2087,15.7817],[80.2123,15.8418],[80.2749,15.8034],[80.2871,15.8393],[80.3377,15.8746],[80.3365,15.9031],[80.3797,15.974],[80.4231,15.9738],[80.4262,15.9999],[80.2388,16.0448]]]}},{"type":"Feature","properties":{"ST_NAME":"ANDHRA PRADESH","DIST_NAME":"GUNTUR","AC_NO":211,"AC_NAME":"Bapatla","PC_NAME":"GUNTUR"},"geometry":{"type":"Polygon","coordinates":[[[80.4655,16.0066],[80.4231,15.9738],[80.3797,15.974],[80.3781,15.8969],[80.4476,15.8231],[80.4182,15.7979],[80.5365,15.8527],[80.6052,15.8707],[80.6502,15.9248],[80.6272,15.9593],[80.6141,16.0361],[80.5951,16.0426],[80.5253,16.008],[80.4655,16.0066]]]}},{"type":"Feature","properties":{"ST_NAME":"ANDHRA PRADESH","DIST_NAME":"KURNOOL","AC_NO":264,"AC_NAME":"Mantralayam","PC_NAME":"KURNOOL"},"geometry":{"type":"Polygon","coordinates":[[[77.4237,15.9477],[77.2844,15.9539],[77.2489,15.9649],[77.146,15.9463],[77.073,15.9108],[77.0316,15.8549],[77.0253,15.8375],[77.0652,15.8278],[77.0491,15.7303],[77.1289,15.6656],[77.2158,15.6804],[77.2376,15.7376],[77.2703,15.7303],[77.3088,15.6636],[77.3505,15.6629],[77.3824,15.726],[77.4438,15.7489],[77.3993,15.808],[77.4394,15.8471],[77.4442,15.9179],[77.4237,15.9477]]]}},{"type":"Feature","properties":{"ST_NAME":"ANDHRA PRADESH","DIST_NAME":"PRAKASAM","AC_NO":222,"AC_NAME":"Darsi","PC_NAME":"PRAKASAM"},"geometry":{"type":"Polygon","coordinates":[[[79.5724,16.0048],[79.5114,15.949],[79.4748,15.9542],[79.3324,15.8276],[79.325,15.805],[79.434,15.7619],[79.4993,15.6992],[79.6274,15.728],[79.7464,15.5932],[79.7704,15.6407],[79.8268,15.6407],[79.8899,15.7041],[79.9087,15.7485],[79.9074,15.8158],[79.9364,15.8309],[79.8699,15.9167],[79.7912,15.9411],[79.7554,15.8999],[79.7456,15.8256],[79.6933,15.8983],[79.6359,15.9073],[79.5595,15.9637],[79.5724,16.0048]]]}},{"type":"Feature","properties":{"ST_NAME":"ANDHRA PRADESH","DIST_NAME":"KURNOOL","AC_NO":263,"AC_NAME":"Yemmiganur","PC_NAME":"KURNOOL"},"geometry":{"type":"Polygon","coordinates":[[[77.5136,15.9271],[77.4237,15.9477],[77.4442,15.9179],[77.4394,15.8471],[77.3993,15.808],[77.4438,15.7489],[77.3824,15.726],[77.3505,15.6629],[77.4207,15.6448],[77.4849,15.6175],[77.5808,15.664],[77.6838,15.6334],[77.7335,15.6054],[77.7505,15.6303],[77.7431,15.672],[77.6849,15.7064],[77.6845,15.7618],[77.6434,15.7673],[77.6014,15.8139],[77.6372,15.8961],[77.6115,15.9182],[77.5136,15.9271]]]}},{"type":"Feature","properties":{"ST_NAME":"ANDHRA PRADESH","DIST_NAME":"PRAKASAM","AC_NO":225,"AC_NAME":"Chirala","PC_NAME":"PRAKASAM"},"geometry":{"type":"Polygon","coordinates":[[[80.3021,15.7091],[80.4182,15.7979],[80.4476,15.8231],[80.3781,15.8969],[80.3797,15.974],[80.3365,15.9031],[80.3377,15.8746],[80.2871,15.8393],[80.2749,15.8034],[80.2123,15.8418],[80.2087,15.7817],[80.2693,15.7489],[80.3021,15.7091]]]}},{"type":"Feature","properties":{"ST_NAME":"ANDHRA PRADESH","DIST_NAME":"KURNOOL","AC_NO":262,"AC_NAME":"Kodumur (Sc)","PC_NAME":"KURNOOL"},"geometry":{"type":"Polygon","coordinates":[[[77.6372,15.8961],[77.6014,15.8139],[77.6434,15.7673],[77.6845,15.7618],[77.6849,15.7064],[77.7431,15.672],[77.7505,15.6303],[77.907,15.6185],[77.8955,15.7013],[77.9181,15.7246],[77.8632,15.7892],[77.9402,15.7933],[77.9987,15.8232],[78.0065,15.8631],[77.8888,15.9061],[77.8051,15.8747],[77.7242,15.8962],[77.6372,15.8961]]]}},{"type":"Feature","properties":{"ST_NAME":"ANDHRA PRADESH","DIST_NAME":"KURNOOL","AC_NO":256,"AC_NAME":"Kurnool","PC_NAME":"KURNOOL"},"geometry":{"type":"Polygon","coordinates":[[[78.0065,15.8631],[77.9987,15.8232],[78.0339,15.7868],[77.9779,15.7655],[78.0399,15.7255],[78.1455,15.7487],[78.1343,15.8369],[78.0991,15.8364],[78.0469,15.8753],[78.0065,15.8631]]]}},{"type":"Feature","properties":{"ST_NAME":"ANDHRA PRADESH","DIST_NAME":"KURNOOL","AC_NO":257,"AC_NAME":"Panyam","PC_NAME":"KURNOOL"},"geometry":{"type":"Polygon","coordinates":[[[78.4388,15.7033],[78.4028,15.7178],[78.3487,15.6511],[78.2357,15.697],[78.1916,15.6881],[78.1455,15.7487],[78.0399,15.7255],[77.9779,15.7655],[78.0339,15.7868],[77.9987,15.8232],[77.9402,15.7933],[77.8632,15.7892],[77.9181,15.7246],[77.8955,15.7013],[77.907,15.6185],[77.9657,15.5956],[78.0112,15.6349],[78.0849,15.6142],[78.103,15.5802],[78.1235,15.5295],[78.1621,15.5485],[78.1945,15.4994],[78.2932,15.5005],[78.2799,15.4543],[78.3243,15.4239],[78.3451,15.3776],[78.4064,15.462],[78.3965,15.5151],[78.4543,15.566],[78.4811,15.6356],[78.4388,15.7033]]]}},{"type":"Feature","properties":{"ST_NAME":"ANDHRA PRADESH","DIST_NAME":"PRAKASAM","AC_NO":230,"AC_NAME":"Markapuram","PC_NAME":"PRAKASAM"},"geometry":{"type":"Polygon","coordinates":[[[79.1557,15.6888],[79.1644,15.6498],[79.2115,15.6118],[79.2341,15.5558],[79.3046,15.5821],[79.3657,15.5254],[79.4471,15.514],[79.4649,15.5425],[79.5184,15.5014],[79.5708,15.4996],[79.6035,15.5462],[79.6116,15.5842],[79.6721,15.5827],[79.7424,15.5566],[79.7646,15.5862],[79.7464,15.5932],[79.6274,15.728],[79.4993,15.6992],[79.434,15.7619],[79.325,15.805],[79.2913,15.756],[79.2101,15.7903],[79.178,15.7568],[79.1557,15.6888]]]}},{"type":"Feature","properties":{"ST_NAME":"ANDHRA PRADESH","DIST_NAME":"KURNOOL","AC_NO":265,"AC_NAME":"Adoni","PC_NAME":"KURNOOL"},"geometry":{"type":"Polygon","coordinates":[[[77.1289,15.6656],[77.0305,15.6345],[77.0326,15.6093],[77.1187,15.5707],[77.1823,15.582],[77.1961,15.524],[77.2931,15.5551],[77.3522,15.542],[77.4092,15.5937],[77.4207,15.6448],[77.3505,15.6629],[77.3088,15.6636],[77.2703,15.7303],[77.2376,15.7376],[77.2158,15.6804],[77.1289,15.6656]]]}},{"type":"Feature","properties":{"ST_NAME":"ANDHRA PRADESH","DIST_NAME":"PRAKASAM","AC_NO":231,"AC_NAME":"Giddalur","PC_NAME":"PRAKASAM"},"geometry":{"type":"Polygon","coordinates":[[[78.7925,15.7721],[78.7715,15.6648],[78.7767,15.5337],[78.7713,15.4206],[78.7366,15.3265],[78.737,15.1992],[78.7583,15.185],[78.7775,15.2],[78.8687,15.1977],[78.9814,15.165],[79.0825,15.1732],[79.1287,15.2199],[79.13,15.2687],[79.1955,15.3301],[79.1941,15.3758],[79.2466,15.5484],[79.2341,15.5558],[79.2115,15.6118],[79.1644,15.6498],[79.1557,15.6888],[79.1101,15.7364],[79.0324,15.7232],[78.9916,15.8066],[78.9096,15.7807],[78.7925,15.7721]]]}},{"type":"Feature","properties":{"ST_NAME":"ANDHRA PRADESH","DIST_NAME":"PRAKASAM","AC_NO":226,"AC_NAME":"Santhanuthalapadu (Sc)","PC_NAME":"PRAKASAM"},"geometry":{"type":"Polygon","coordinates":[[[79.8899,15.7041],[79.8268,15.6407],[79.7704,15.6407],[79.7464,15.5932],[79.7646,15.5862],[79.8042,15.5116],[79.9057,15.4324],[79.9385,15.4976],[79.9899,15.4782],[80.0268,15.5607],[80.0812,15.5998],[80.1353,15.5657],[80.1644,15.5796],[80.2297,15.5646],[80.2401,15.6062],[80.1719,15.6266],[80.1741,15.7007],[80.1535,15.7244],[80.0965,15.6734],[80.0303,15.7106],[79.9595,15.7194],[79.8899,15.7041]]]}},{"type":"Feature","properties":{"ST_NAME":"ANDHRA PRADESH","DIST_NAME":"KURNOOL","AC_NO":266,"AC_NAME":"Alur","PC_NAME":"KURNOOL"},"geometry":{"type":"Polygon","coordinates":[[[77.4207,15.6448],[77.4092,15.5937],[77.3522,15.542],[77.2931,15.5551],[77.1961,15.524],[77.1823,15.582],[77.1187,15.5707],[77.0326,15.6093],[77.0293,15.5008],[77.0463,15.3814],[77.0646,15.3279],[77.1134,15.3341],[77.1522,15.2758],[77.1573,15.1405],[77.2,15.1601],[77.292,15.1313],[77.3012,15.1544],[77.3516,15.1779],[77.3632,15.2233],[77.4183,15.2243],[77.3433,15.2848],[77.3569,15.3367],[77.4109,15.3359],[77.4051,15.4348],[77.4222,15.4923],[77.5343,15.4705],[77.5808,15.4793],[77.6094,15.4217],[77.6635,15.4532],[77.6771,15.5247],[77.7335,15.6054],[77.6838,15.6334],[77.5808,15.664],[77.4849,15.6175],[77.4207,15.6448]]]}},{"type":"Feature","properties":{"ST_NAME":"ANDHRA PRADESH","DIST_NAME":"KURNOOL","AC_NO":261,"AC_NAME":"Pattikonda","PC_NAME":"KURNOOL"},"geometry":{"type":"Polygon","coordinates":[[[77.7335,15.6054],[77.6771,15.5247],[77.6635,15.4532],[77.6094,15.4217],[77.5808,15.4793],[77.5343,15.4705],[77.4222,15.4923],[77.4051,15.4348],[77.4109,15.3359],[77.3569,15.3367],[77.3433,15.2848],[77.4183,15.2243],[77.4812,15.2083],[77.5272,15.2243],[77.6115,15.1839],[77.6692,15.2329],[77.6831,15.3186],[77.6508,15.3455],[77.671,15.3928],[77.72,15.3846],[77.7703,15.4064],[77.8075,15.4866],[77.8917,15.4653],[77.9252,15.4236],[77.9711,15.4284],[78.0271,15.4796],[78.0625,15.5665],[78.103,15.5802],[78.0849,15.6142],[78.0112,15.6349],[77.9657,15.5956],[77.907,15.6185],[77.7505,15.6303],[77.7335,15.6054]]]}},{"type":"Feature","properties":{"ST_NAME":"ANDHRA PRADESH","DIST_NAME":"KURNOOL","AC_NO":260,"AC_NAME":"Dhone","PC_NAME":"KURNOOL"},"geometry":{"type":"Polygon","coordinates":[[[78.103,15.5802],[78.0625,15.5665],[78.0271,15.4796],[77.9711,15.4284],[77.9252,15.4236],[77.8917,15.4653],[77.8075,15.4866],[77.7703,15.4064],[77.72,15.3846],[77.671,15.3928],[77.6508,15.3455],[77.6831,15.3186],[77.6692,15.2329],[77.6932,15.1844],[77.7736,15.1125],[77.839,15.1453],[77.8756,15.1355],[77.9056,15.1772],[77.9565,15.2504],[77.9669,15.3436],[78.0815,15.3549],[78.1135,15.4167],[78.1871,15.4364],[78.1945,15.4994],[78.1621,15.5485],[78.1235,15.5295],[78.103,15.5802]]]}},{"type":"Feature","properties":{"ST_NAME":"ANDHRA PRADESH","DIST_NAME":"PRAKASAM","AC_NO":229,"AC_NAME":"Kondapi (Sc)","PC_NAME":"PRAKASAM"},"geometry":{"type":"Polygon","coordinates":[[[79.6035,15.5462],[79.6116,15.4274],[79.6858,15.4242],[79.6699,15.3792],[79.6619,15.2605],[79.6991,15.229],[79.7335,15.2456],[79.7967,15.2271],[79.8696,15.2951],[79.9608,15.3334],[79.9938,15.3151],[79.9719,15.2425],[80.0895,15.2154],[80.0845,15.2699],[80.1157,15.3546],[80.0483,15.3964],[80.0861,15.4363],[79.9899,15.4782],[79.9385,15.4976],[79.9057,15.4324],[79.8042,15.5116],[79.7646,15.5862],[79.7424,15.5566],[79.6721,15.5827],[79.6116,15.5842],[79.6035,15.5462]]]}},{"type":"Feature","properties":{"ST_NAME":"ANDHRA PRADESH","DIST_NAME":"PRAKASAM","AC_NO":227,"AC_NAME":"Ongole","PC_NAME":"PRAKASAM"},"geometry":{"type":"Polygon","coordinates":[[[79.9899,15.4782],[80.0861,15.4363],[80.0483,15.3964],[80.1157,15.3546],[80.2048,15.4707],[80.2297,15.5646],[80.1644,15.5796],[80.1353,15.5657],[80.0812,15.5998],[80.0268,15.5607],[79.9899,15.4782]]]}},{"type":"Feature","properties":{"ST_NAME":"ANDHRA PRADESH","DIST_NAME":"KURNOOL","AC_NO":258,"AC_NAME":"Nandyal","PC_NAME":"KURNOOL"},"geometry":{"type":"Polygon","coordinates":[[[78.4543,15.566],[78.3965,15.5151],[78.4064,15.462],[78.3451,15.3776],[78.3492,15.3444],[78.3952,15.3143],[78.4493,15.2991],[78.4578,15.3584],[78.4997,15.4047],[78.5217,15.4623],[78.4543,15.566]]]}},{"type":"Feature","properties":{"ST_NAME":"ANDHRA PRADESH","DIST_NAME":"PRAKASAM","AC_NO":232,"AC_NAME":"Kanigiri","PC_NAME":"PRAKASAM"},"geometry":{"type":"Polygon","coordinates":[[[79.2341,15.5558],[79.2466,15.5484],[79.1941,15.3758],[79.1955,15.3301],[79.13,15.2687],[79.1287,15.2199],[79.0825,15.1732],[79.0761,15.1042],[79.0901,15.0491],[79.1009,15.0843],[79.215,15.0857],[79.2487,15.1054],[79.3146,15.1017],[79.5057,15.0473],[79.5586,15.0221],[79.6283,15.0351],[79.6426,15.1317],[79.6335,15.1859],[79.6619,15.2605],[79.6699,15.3792],[79.6858,15.4242],[79.6116,15.4274],[79.6035,15.5462],[79.5708,15.4996],[79.5184,15.5014],[79.4649,15.5425],[79.4471,15.514],[79.3657,15.5254],[79.3046,15.5821],[79.2341,15.5558]]]}},{"type":"Feature","properties":{"ST_NAME":"ANDHRA PRADESH","DIST_NAME":"KURNOOL","AC_NO":259,"AC_NAME":"Banaganapalle","PC_NAME":"KURNOOL"},"geometry":{"type":"Polygon","coordinates":[[[78.1945,15.4994],[78.1871,15.4364],[78.1135,15.4167],[78.0815,15.3549],[77.9669,15.3436],[77.9565,15.2504],[77.9056,15.1772],[77.9064,15.123],[78.0142,15.1123],[77.9952,15.0643],[78.034,14.9999],[78.137,14.9481],[78.2106,14.9524],[78.2933,15.0736],[78.312,15.1515],[78.3448,15.2085],[78.3551,15.2665],[78.3952,15.3143],[78.3492,15.3444],[78.3451,15.3776],[78.3243,15.4239],[78.2799,15.4543],[78.2932,15.5005],[78.1945,15.4994]]]}},{"type":"Feature","properties":{"ST_NAME":"ANDHRA PRADESH","DIST_NAME":"KURNOOL","AC_NO":253,"AC_NAME":"Allagadda","PC_NAME":"KURNOOL"},"geometry":{"type":"Polygon","coordinates":[[[78.4997,15.4047],[78.4578,15.3584],[78.4493,15.2991],[78.3952,15.3143],[78.3551,15.2665],[78.3448,15.2085],[78.312,15.1515],[78.2933,15.0736],[78.3532,15.0313],[78.3428,15.0032],[78.4097,14.973],[78.4194,15.0318],[78.4573,15.0311],[78.5061,15.0697],[78.5166,14.997],[78.4904,14.9111],[78.5913,14.9396],[78.63,14.926],[78.7179,14.9689],[78.7099,15.0224],[78.7486,15.0345],[78.7583,15.185],[78.737,15.1992],[78.7366,15.3265],[78.7713,15.4206],[78.6564,15.3952],[78.5904,15.3964],[78.5339,15.4377],[78.4997,15.4047]]]}},{"type":"Feature","properties":{"ST_NAME":"ANDHRA PRADESH","DIST_NAME":"PRAKASAM","AC_NO":228,"AC_NAME":"Kandukur","PC_NAME":"PRAKASAM"},"geometry":{"type":"Polygon","coordinates":[[[79.6619,15.2605],[79.6335,15.1859],[79.6426,15.1317],[79.6283,15.0351],[79.7338,15.0311],[79.7969,15.0562],[79.7795,14.9815],[79.8654,14.9641],[79.8734,14.9877],[79.9618,15.0232],[80.0273,14.981],[80.0542,15.0055],[80.0471,15.0838],[80.0895,15.2154],[79.9719,15.2425],[79.9938,15.3151],[79.9608,15.3334],[79.8696,15.2951],[79.7967,15.2271],[79.7335,15.2456],[79.6991,15.229],[79.6619,15.2605]]]}},{"type":"Feature","properties":{"ST_NAME":"ANDHRA PRADESH","DIST_NAME":"ANANTHAPURAMU","AC_NO":269,"AC_NAME":"Guntakal","PC_NAME":"ANANTHAPURAMU"},"geometry":{"type":"Polygon","coordinates":[[[77.3012,15.1544],[77.404,15.0902],[77.4432,15.045],[77.4546,14.976],[77.4239,14.9115],[77.4685,14.8879],[77.5292,14.8932],[77.5956,14.9298],[77.657,14.9189],[77.6458,15.0037],[77.6104,15.0635],[77.7141,15.0742],[77.7736,15.1125],[77.6932,15.1844],[77.6692,15.2329],[77.6115,15.1839],[77.5272,15.2243],[77.4812,15.2083],[77.4183,15.2243],[77.3632,15.2233],[77.3516,15.1779],[77.3012,15.1544]]]}},{"type":"Feature","properties":{"ST_NAME":"ANDHRA PRADESH","DIST_NAME":"YSR KADAPA","AC_NO":243,"AC_NAME":"Badvel (Sc)","PC_NAME":"YSR KADAPA"},"geometry":{"type":"Polygon","coordinates":[[[78.7583,15.185],[78.7486,15.0345],[78.7947,14.9198],[78.833,14.8605],[78.9377,14.9051],[78.9533,14.8335],[78.9767,14.8226],[78.9762,14.7514],[79.0075,14.6994],[78.8848,14.6903],[78.9022,14.5917],[78.8718,14.538],[78.8867,14.509],[78.9484,14.4642],[79.0637,14.4429],[79.1009,14.4714],[79.1457,14.4387],[79.1858,14.4521],[79.2183,14.4042],[79.2384,14.3381],[79.3077,14.3528],[79.371,14.3492],[79.311,14.4787],[79.2487,14.571],[79.1891,14.6166],[79.1856,14.711],[79.1654,14.7645],[79.1338,14.8672],[79.1041,14.8989],[79.0815,14.983],[79.0901,15.0491],[79.0761,15.1042],[79.0825,15.1732],[78.9814,15.165],[78.8687,15.1977],[78.7775,15.2],[78.7583,15.185]]]}},{"type":"Feature","properties":{"ST_NAME":"ANDHRA PRADESH","DIST_NAME":"ANANTHAPURAMU","AC_NO":268,"AC_NAME":"Uravakonda","PC_NAME":"ANANTHAPURAMU"},"geometry":{"type":"Polygon","coordinates":[[[77.1573,15.1405],[77.113,15.0341],[77.0825,15.0068],[77.1242,14.9185],[77.18,14.8694],[77.1807,14.8281],[77.2119,14.7675],[77.2078,14.7312],[77.0889,14.7574],[76.9625,14.7358],[77.005,14.6301],[77.0681,14.6436],[77.1472,14.6293],[77.259,14.5882],[77.3007,14.6397],[77.3002,14.6723],[77.4052,14.6935],[77.5322,14.7059],[77.542,14.7454],[77.5066,14.7463],[77.4536,14.8122],[77.4294,14.8742],[77.4685,14.8879],[77.4239,14.9115],[77.4546,14.976],[77.4432,15.045],[77.404,15.0902],[77.3012,15.1544],[77.292,15.1313],[77.2,15.1601],[77.1573,15.1405]]]}},{"type":"Feature","properties":{"ST_NAME":"ANDHRA PRADESH","DIST_NAME":"ANANTHAPURAMU","AC_NO":270,"AC_NAME":"Tadpatri","PC_NAME":"ANANTHAPURAMU"},"geometry":{"type":"Polygon","coordinates":[[[77.7736,15.1125],[77.7141,15.0742],[77.6104,15.0635],[77.6458,15.0037],[77.657,14.9189],[77.753,14.8867],[77.7909,14.8974],[77.8648,14.8085],[77.9478,14.8541],[78.0374,14.8409],[78.0735,14.8147],[78.1131,14.932],[78.137,14.9481],[78.034,14.9999],[77.9952,15.0643],[78.0142,15.1123],[77.9064,15.123],[77.9056,15.1772],[77.8756,15.1355],[77.839,15.1453],[77.7736,15.1125]]]}},{"type":"Feature","properties":{"ST_NAME":"ANDHRA PRADESH","DIST_NAME":"ANANTHAPURAMU","AC_NO":267,"AC_NAME":"Rayadurg","PC_NAME":"ANANTHAPURAMU"},"geometry":{"type":"Polygon","coordinates":[[[77.0825,15.0068],[77.0496,15.0331],[76.8773,15.0306],[76.866,15.0601],[76.7998,15.0959],[76.7739,15.0657],[76.7902,15.0208],[76.76,14.9895],[76.8673,14.9696],[76.8638,14.8955],[76.8366,14.7909],[76.7753,14.6812],[76.765,14.6022],[76.8063,14.5311],[76.8325,14.5295],[76.8727,14.5402],[76.948,14.6095],[77.005,14.6301],[76.9625,14.7358],[77.0889,14.7574],[77.2078,14.7312],[77.2119,14.7675],[77.1807,14.8281],[77.18,14.8694],[77.1242,14.9185],[77.0825,15.0068]]]}},{"type":"Feature","properties":{"ST_NAME":"ANDHRA PRADESH","DIST_NAME":"SPSR NELLORE","AC_NO":242,"AC_NAME":"Udayagiri","PC_NAME":"SPSR NELLORE"},"geometry":{"type":"Polygon","coordinates":[[[79.0901,15.0491],[79.0815,14.983],[79.1041,14.8989],[79.1338,14.8672],[79.1654,14.7645],[79.1788,14.8479],[79.2203,14.8529],[79.2829,14.7794],[79.3536,14.7614],[79.3903,14.7783],[79.4385,14.722],[79.4813,14.7168],[79.6004,14.7559],[79.6288,14.7892],[79.7399,14.7663],[79.7946,14.7174],[79.8512,14.7511],[79.9339,14.7736],[79.97,14.8328],[79.9386,14.8764],[79.9588,14.9356],[79.8816,14.9356],[79.8734,14.9877],[79.8654,14.9641],[79.7795,14.9815],[79.7969,15.0562],[79.7338,15.0311],[79.6283,15.0351],[79.5586,15.0221],[79.5057,15.0473],[79.3146,15.1017],[79.2487,15.1054],[79.215,15.0857],[79.1009,15.0843],[79.0901,15.0491]]]}},{"type":"Feature","properties":{"ST_NAME":"ANDHRA PRADESH","DIST_NAME":"YSR KADAPA","AC_NO":250,"AC_NAME":"Jammalamadugu","PC_NAME":"YSR KADAPA"},"geometry":{"type":"Polygon","coordinates":[[[78.137,14.9481],[78.1131,14.932],[78.0735,14.8147],[78.0461,14.7724],[78.0635,14.7187],[78.1347,14.6957],[78.1312,14.6661],[78.1638,14.6575],[78.209,14.7189],[78.3011,14.6368],[78.3519,14.6147],[78.3564,14.5612],[78.4065,14.5259],[78.4461,14.5859],[78.5052,14.5953],[78.5714,14.5565],[78.5977,14.5872],[78.6051,14.6572],[78.5628,14.7125],[78.4705,14.7565],[78.5106,14.8716],[78.4904,14.9111],[78.5166,14.997],[78.5061,15.0697],[78.4573,15.0311],[78.4194,15.0318],[78.4097,14.973],[78.3428,15.0032],[78.3532,15.0313],[78.2933,15.0736],[78.2106,14.9524],[78.137,14.9481]]]}},{"type":"Feature","properties":{"ST_NAME":"ANDHRA PRADESH","DIST_NAME":"YSR KADAPA","AC_NO":252,"AC_NAME":"Mydukur","PC_NAME":"YSR KADAPA"},"geometry":{"type":"Polygon","coordinates":[[[78.5913,14.9396],[78.6336,14.8673],[78.6325,14.7808],[78.6079,14.7542],[78.6238,14.658],[78.7264,14.5904],[78.7901,14.564],[78.8124,14.5839],[78.9022,14.5917],[78.8848,14.6903],[79.0075,14.6994],[78.9762,14.7514],[78.9767,14.8226],[78.9533,14.8335],[78.9377,14.9051],[78.833,14.8605],[78.7947,14.9198],[78.7486,15.0345],[78.7099,15.0224],[78.7179,14.9689],[78.63,14.926],[78.5913,14.9396]]]}},{"type":"Feature","properties":{"ST_NAME":"ANDHRA PRADESH","DIST_NAME":"SPSR NELLORE","AC_NO":233,"AC_NAME":"Kavali","PC_NAME":"SPSR NELLORE"},"geometry":{"type":"Polygon","coordinates":[[[79.8734,14.9877],[79.8816,14.9356],[79.9588,14.9356],[79.9386,14.8764],[79.97,14.8328],[79.9339,14.7736],[79.8512,14.7511],[79.7946,14.7174],[79.7991,14.6793],[79.8473,14.6705],[79.8706,14.5906],[79.9465,14.5864],[80.0003,14.6316],[80.063,14.6117],[80.1514,14.6712],[80.1097,14.7392],[80.0849,14.8821],[80.0542,15.0055],[80.0273,14.981],[79.9618,15.0232],[79.8734,14.9877]]]}},{"type":"Feature","properties":{"ST_NAME":"ANDHRA PRADESH","DIST_NAME":"YSR KADAPA","AC_NO":251,"AC_NAME":"Proddatur","PC_NAME":"YSR KADAPA"},"geometry":{"type":"Polygon","coordinates":[[[78.4904,14.9111],[78.5106,14.8716],[78.4705,14.7565],[78.5628,14.7125],[78.6051,14.6572],[78.6238,14.658],[78.6079,14.7542],[78.6325,14.7808],[78.6336,14.8673],[78.5913,14.9396],[78.4904,14.9111]]]}},{"type":"Feature","properties":{"ST_NAME":"ANDHRA PRADESH","DIST_NAME":"ANANTHAPURAMU","AC_NO":271,"AC_NAME":"Singanamala (Sc)","PC_NAME":"ANANTHAPURAMU"},"geometry":{"type":"Polygon","coordinates":[[[77.4685,14.8879],[77.4294,14.8742],[77.4536,14.8122],[77.5066,14.7463],[77.542,14.7454],[77.5773,14.7659],[77.6127,14.73],[77.6306,14.6701],[77.6539,14.6337],[77.735,14.6166],[77.7352,14.5861],[77.7928,14.6105],[77.8437,14.5987],[77.8651,14.649],[77.9769,14.6188],[77.9704,14.5746],[77.9874,14.5408],[78.0332,14.531],[78.0883,14.6308],[78.1312,14.6661],[78.1347,14.6957],[78.0635,14.7187],[78.0461,14.7724],[78.0735,14.8147],[78.0374,14.8409],[77.9478,14.8541],[77.8648,14.8085],[77.7909,14.8974],[77.753,14.8867],[77.657,14.9189],[77.5956,14.9298],[77.5292,14.8932],[77.4685,14.8879]]]}},{"type":"Feature","properties":{"ST_NAME":"ANDHRA PRADESH","DIST_NAME":"SPSR NELLORE","AC_NO":234,"AC_NAME":"Atmakur","PC_NAME":"SPSR NELLORE"},"geometry":{"type":"Polygon","coordinates":[[[79.311,14.4787],[79.3733,14.5149],[79.4677,14.5491],[79.4738,14.5011],[79.518,14.4447],[79.5598,14.4767],[79.5923,14.4261],[79.5988,14.3676],[79.649,14.3949],[79.6824,14.4502],[79.6513,14.4785],[79.71,14.539],[79.7177,14.582],[79.8031,14.5318],[79.8363,14.4932],[79.8706,14.5906],[79.8473,14.6705],[79.7991,14.6793],[79.7946,14.7174],[79.7399,14.7663],[79.6288,14.7892],[79.6004,14.7559],[79.4813,14.7168],[79.4385,14.722],[79.3903,14.7783],[79.3536,14.7614],[79.2829,14.7794],[79.2203,14.8529],[79.1788,14.8479],[79.1654,14.7645],[79.1856,14.711],[79.1891,14.6166],[79.2487,14.571],[79.311,14.4787]]]}},{"type":"Feature","properties":{"ST_NAME":"ANDHRA PRADESH","DIST_NAME":"ANANTHAPURAMU","AC_NO":272,"AC_NAME":"Anantapur Urban","PC_NAME":"ANANTHAPURAMU"},"geometry":{"type":"Polygon","coordinates":[[[77.5322,14.7059],[77.5636,14.6816],[77.5859,14.614],[77.6306,14.6701],[77.6127,14.73],[77.5773,14.7659],[77.542,14.7454],[77.5322,14.7059]]]}},{"type":"Feature","properties":{"ST_NAME":"ANDHRA PRADESH","DIST_NAME":"ANANTHAPURAMU","AC_NO":274,"AC_NAME":"Raptadu","PC_NAME":"ANANTHAPURAMU"},"geometry":{"type":"Polygon","coordinates":[[[77.3007,14.6397],[77.355,14.6062],[77.3507,14.5468],[77.3852,14.4948],[77.3446,14.4456],[77.3308,14.3955],[77.3393,14.3139],[77.3623,14.2761],[77.4109,14.337],[77.4789,14.2922],[77.5171,14.1844],[77.579,14.226],[77.6601,14.2367],[77.8156,14.2726],[77.839,14.3023],[77.7944,14.3275],[77.7196,14.3288],[77.7037,14.3763],[77.6662,14.3706],[77.6248,14.4001],[77.6495,14.5201],[77.6972,14.5369],[77.7352,14.5861],[77.735,14.6166],[77.6539,14.6337],[77.6306,14.6701],[77.5859,14.614],[77.5636,14.6816],[77.5322,14.7059],[77.4052,14.6935],[77.3002,14.6723],[77.3007,14.6397]]]}},{"type":"Feature","properties":{"ST_NAME":"ANDHRA PRADESH","DIST_NAME":"YSR KADAPA","AC_NO":248,"AC_NAME":"Pulivendla","PC_NAME":"YSR KADAPA"},"geometry":{"type":"Polygon","coordinates":[[[78.1312,14.6661],[78.0883,14.6308],[78.0332,14.531],[77.9874,14.5408],[77.9704,14.5746],[78.0007,14.489],[78.1068,14.3933],[78.22,14.3261],[78.2851,14.2922],[78.3572,14.2931],[78.4239,14.2738],[78.406,14.2014],[78.4493,14.1305],[78.4979,14.1693],[78.5592,14.1544],[78.6317,14.2128],[78.6071,14.2747],[78.7702,14.3038],[78.6613,14.3012],[78.6523,14.3209],[78.5265,14.3396],[78.4771,14.3737],[78.3961,14.4683],[78.4065,14.5259],[78.3564,14.5612],[78.3519,14.6147],[78.3011,14.6368],[78.209,14.7189],[78.1638,14.6575],[78.1312,14.6661]]]}},{"type":"Feature","properties":{"ST_NAME":"ANDHRA PRADESH","DIST_NAME":"ANANTHAPURAMU","AC_NO":273,"AC_NAME":"Kalyandurg","PC_NAME":"ANANTHAPURAMU"},"geometry":{"type":"Polygon","coordinates":[[[77.005,14.6301],[76.948,14.6095],[76.8727,14.5402],[76.8325,14.5295],[76.868,14.4741],[76.9007,14.4892],[76.9748,14.4854],[76.9478,14.4132],[76.9158,14.4206],[76.8858,14.3957],[76.9034,14.3227],[76.9398,14.2449],[77.0055,14.2359],[77.1102,14.2683],[77.1357,14.3369],[77.2474,14.3178],[77.2835,14.2828],[77.3623,14.2761],[77.3393,14.3139],[77.3308,14.3955],[77.3446,14.4456],[77.3852,14.4948],[77.3507,14.5468],[77.355,14.6062],[77.3007,14.6397],[77.259,14.5882],[77.1472,14.6293],[77.0681,14.6436],[77.005,14.6301]]]}},{"type":"Feature","properties":{"ST_NAME":"ANDHRA PRADESH","DIST_NAME":"ANANTHAPURAMU","AC_NO":279,"AC_NAME":"Dharmavaram","PC_NAME":"ANANTHAPURAMU"},"geometry":{"type":"Polygon","coordinates":[[[77.7352,14.5861],[77.6972,14.5369],[77.6495,14.5201],[77.6248,14.4001],[77.6662,14.3706],[77.7037,14.3763],[77.7196,14.3288],[77.7944,14.3275],[77.839,14.3023],[77.878,14.2988],[77.8716,14.3333],[77.9458,14.35],[78.0252,14.2781],[78.0797,14.2101],[78.1177,14.2298],[78.1531,14.326],[78.22,14.3261],[78.1068,14.3933],[78.0007,14.489],[77.9704,14.5746],[77.9769,14.6188],[77.8651,14.649],[77.8437,14.5987],[77.7928,14.6105],[77.7352,14.5861]]]}},{"type":"Feature","properties":{"ST_NAME":"ANDHRA PRADESH","DIST_NAME":"YSR KADAPA","AC_NO":249,"AC_NAME":"Kamalapuram","PC_NAME":"YSR KADAPA"},"geometry":{"type":"Polygon","coordinates":[[[78.9022,14.5917],[78.8124,14.5839],[78.7901,14.564],[78.7264,14.5904],[78.6238,14.658],[78.6051,14.6572],[78.5977,14.5872],[78.5714,14.5565],[78.5052,14.5953],[78.4461,14.5859],[78.4065,14.5259],[78.3961,14.4683],[78.4771,14.3737],[78.5265,14.3396],[78.6523,14.3209],[78.6613,14.3012],[78.7702,14.3038],[78.8203,14.2815],[78.8736,14.3073],[78.9067,14.3435],[78.8914,14.392],[78.8476,14.4386],[78.8032,14.437],[78.7763,14.4683],[78.8284,14.5191],[78.8849,14.5089],[78.8867,14.509],[78.8718,14.538],[78.9022,14.5917]]]}},{"type":"Feature","properties":{"ST_NAME":"ANDHRA PRADESH","DIST_NAME":"SPSR NELLORE","AC_NO":235,"AC_NAME":"Kovur","PC_NAME":"SPSR NELLORE"},"geometry":{"type":"Polygon","coordinates":[[[79.8706,14.5906],[79.8363,14.4932],[79.9336,14.4772],[80.0684,14.4649],[80.1765,14.4516],[80.196,14.5865],[80.1514,14.6712],[80.063,14.6117],[80.0003,14.6316],[79.9465,14.5864],[79.8706,14.5906]]]}},{"type":"Feature","properties":{"ST_NAME":"ANDHRA PRADESH","DIST_NAME":"SPSR NELLORE","AC_NO":238,"AC_NAME":"Sarvepalli","PC_NAME":"SPSR NELLORE"},"geometry":{"type":"Polygon","coordinates":[[[79.5988,14.3676],[79.6765,14.3161],[79.7779,14.3073],[79.8047,14.2586],[79.8687,14.1635],[79.9319,14.1403],[79.9987,14.1894],[80.0228,14.183],[80.0773,14.2532],[80.1382,14.2496],[80.1672,14.3444],[80.1765,14.4516],[80.0684,14.4649],[80.0419,14.4365],[80.06,14.3698],[80.02,14.3302],[79.987,14.3632],[79.9136,14.3833],[79.8347,14.3748],[79.7862,14.4228],[79.8031,14.5318],[79.7177,14.582],[79.71,14.539],[79.6513,14.4785],[79.6824,14.4502],[79.649,14.3949],[79.5988,14.3676]]]}},{"type":"Feature","properties":{"ST_NAME":"ANDHRA PRADESH","DIST_NAME":"SPSR NELLORE","AC_NO":241,"AC_NAME":"Venkatagiri","PC_NAME":"SPSR NELLORE"},"geometry":{"type":"Polygon","coordinates":[[[79.371,14.3492],[79.3896,14.3411],[79.4354,14.2435],[79.4224,14.2065],[79.4542,14.1013],[79.4368,14.0242],[79.4585,13.9465],[79.4433,13.8908],[79.4783,13.9128],[79.5926,13.9236],[79.6095,13.8516],[79.6685,13.836],[79.6785,13.9242],[79.7286,13.9053],[79.7336,13.8616],[79.7724,13.8528],[79.7859,13.9055],[79.7322,13.9677],[79.7588,14.0178],[79.7239,14.0904],[79.7559,14.1535],[79.8001,14.1767],[79.7811,14.2177],[79.8047,14.2586],[79.7779,14.3073],[79.6765,14.3161],[79.5988,14.3676],[79.5923,14.4261],[79.5598,14.4767],[79.518,14.4447],[79.4738,14.5011],[79.4677,14.5491],[79.3733,14.5149],[79.311,14.4787],[79.371,14.3492]]]}},{"type":"Feature","properties":{"ST_NAME":"ANDHRA PRADESH","DIST_NAME":"YSR KADAPA","AC_NO":245,"AC_NAME":"Kadapa","PC_NAME":"YSR KADAPA"},"geometry":{"type":"Polygon","coordinates":[[[78.8914,14.392],[78.869,14.4878],[78.8849,14.5089],[78.8284,14.5191],[78.7763,14.4683],[78.8032,14.437],[78.8476,14.4386],[78.8914,14.392]]]}},{"type":"Feature","properties":{"ST_NAME":"ANDHRA PRADESH","DIST_NAME":"SPSR NELLORE","AC_NO":236,"AC_NAME":"Nellore City","PC_NAME":"SPSR NELLORE"},"geometry":{"type":"Polygon","coordinates":[[[79.8031,14.5318],[79.7862,14.4228],[79.8347,14.3748],[79.9136,14.3833],[79.9336,14.4772],[79.8363,14.4932],[79.8031,14.5318]]]}},{"type":"Feature","properties":{"ST_NAME":"ANDHRA PRADESH","DIST_NAME":"YSR KADAPA","AC_NO":244,"AC_NAME":"Rajampet","PC_NAME":"YSR KADAPA"},"geometry":{"type":"Polygon","coordinates":[[[78.8867,14.509],[78.8849,14.5089],[78.869,14.4878],[78.8914,14.392],[78.9067,14.3435],[78.8736,14.3073],[78.947,14.248],[78.9292,14.1972],[78.8383,14.195],[78.8038,14.1276],[78.8129,14.0656],[78.8665,14.0812],[78.851,14.0094],[78.872,13.8975],[78.9792,13.891],[79.0025,13.9103],[79.0073,14.0168],[78.9628,14.0196],[78.9537,14.0853],[78.989,14.1355],[79.0674,14.151],[79.1497,14.1213],[79.206,14.196],[79.1681,14.2533],[79.2409,14.3114],[79.2384,14.3381],[79.2183,14.4042],[79.1858,14.4521],[79.1457,14.4387],[79.1009,14.4714],[79.0637,14.4429],[78.9484,14.4642],[78.8867,14.509]]]}},{"type":"Feature","properties":{"ST_NAME":"ANDHRA PRADESH","DIST_NAME":"SPSR NELLORE","AC_NO":237,"AC_NAME":"Nellore Rural","PC_NAME":"SPSR NELLORE"},"geometry":{"type":"Polygon","coordinates":[[[79.9336,14.4772],[79.9136,14.3833],[79.987,14.3632],[80.02,14.3302],[80.06,14.3698],[80.0419,14.4365],[80.0684,14.4649],[79.9336,14.4772]]]}},{"type":"Feature","properties":{"ST_NAME":"ANDHRA PRADESH","DIST_NAME":"ANANTHAPURAMU","AC_NO":278,"AC_NAME":"Puttaparthi","PC_NAME":"ANANTHAPURAMU"},"geometry":{"type":"Polygon","coordinates":[[[77.8873,13.9393],[77.8885,13.9395],[77.9271,13.9054],[77.9875,13.9555],[77.9921,13.8689],[78.1089,13.8624],[78.1273,13.9078],[78.1282,13.9944],[78.0855,13.9908],[78.0963,14.0109],[78.071,14.0675],[78.0876,14.1572],[78.0797,14.2101],[78.0252,14.2781],[77.9458,14.35],[77.8716,14.3333],[77.878,14.2988],[77.839,14.3023],[77.8156,14.2726],[77.6601,14.2367],[77.6845,14.1708],[77.659,14.1268],[77.6993,14.0924],[77.6982,14.0323],[77.7909,14.0634],[77.904,14.0354],[77.8873,13.9393]]]}},{"type":"Feature","properties":{"ST_NAME":"ANDHRA PRADESH","DIST_NAME":"YSR KADAPA","AC_NO":246,"AC_NAME":"Kodur (Sc)","PC_NAME":"YSR KADAPA"},"geometry":{"type":"Polygon","coordinates":[[[79.2384,14.3381],[79.2409,14.3114],[79.1681,14.2533],[79.206,14.196],[79.1497,14.1213],[79.0674,14.151],[78.989,14.1355],[78.9537,14.0853],[78.9628,14.0196],[79.0073,14.0168],[79.0025,13.9103],[79.0827,13.8793],[79.0965,13.8506],[79.1572,13.854],[79.216,13.8126],[79.2588,13.7609],[79.3058,13.7242],[79.3977,13.7617],[79.4492,13.781],[79.4433,13.8908],[79.4585,13.9465],[79.4368,14.0242],[79.4542,14.1013],[79.4224,14.2065],[79.4354,14.2435],[79.3896,14.3411],[79.371,14.3492],[79.3077,14.3528],[79.2384,14.3381]]]}},{"type":"Feature","properties":{"ST_NAME":"ANDHRA PRADESH","DIST_NAME":"ANANTHAPURAMU","AC_NO":280,"AC_NAME":"Kadiri","PC_NAME":"ANANTHAPURAMU"},"geometry":{"type":"Polygon","coordinates":[[[78.22,14.3261],[78.1531,14.326],[78.1177,14.2298],[78.0797,14.2101],[78.0876,14.1572],[78.071,14.0675],[78.0963,14.0109],[78.0855,13.9908],[78.1282,13.9944],[78.1273,13.9078],[78.1089,13.8624],[78.1257,13.7866],[78.2364,13.7796],[78.2632,13.8643],[78.3182,13.9208],[78.3875,13.9394],[78.4661,13.9949],[78.4404,14.0189],[78.4493,14.1305],[78.406,14.2014],[78.4239,14.2738],[78.3572,14.2931],[78.2851,14.2922],[78.22,14.3261]]]}},{"type":"Feature","properties":{"ST_NAME":"ANDHRA PRADESH","DIST_NAME":"YSR KADAPA","AC_NO":247,"AC_NAME":"Rayachoti","PC_NAME":"YSR KADAPA"},"geometry":{"type":"Polygon","coordinates":[[[78.4493,14.1305],[78.4404,14.0189],[78.4661,13.9949],[78.5039,13.9591],[78.5445,13.991],[78.5992,13.9601],[78.5872,13.9129],[78.6499,13.9089],[78.6429,13.8678],[78.7459,13.8715],[78.872,13.8975],[78.851,14.0094],[78.8665,14.0812],[78.8129,14.0656],[78.8038,14.1276],[78.8383,14.195],[78.9292,14.1972],[78.947,14.248],[78.8736,14.3073],[78.8203,14.2815],[78.7702,14.3038],[78.6071,14.2747],[78.6317,14.2128],[78.5592,14.1544],[78.4979,14.1693],[78.4493,14.1305]]]}},{"type":"Feature","properties":{"ST_NAME":"ANDHRA PRADESH","DIST_NAME":"ANANTHAPURAMU","AC_NO":277,"AC_NAME":"Penukonda","PC_NAME":"ANANTHAPURAMU"},"geometry":{"type":"Polygon","coordinates":[[[77.5171,14.1844],[77.5035,14.1571],[77.3937,14.1743],[77.3617,14.1154],[77.3974,14.1255],[77.3323,14.0307],[77.3902,14.0167],[77.4259,13.9862],[77.4136,13.8976],[77.432,13.8411],[77.4515,13.8096],[77.529,13.8943],[77.5417,13.9283],[77.6113,13.9444],[77.6541,13.903],[77.7156,13.9327],[77.8138,13.9269],[77.8138,13.9271],[77.8866,13.9391],[77.8873,13.9393],[77.904,14.0354],[77.7909,14.0634],[77.6982,14.0323],[77.6993,14.0924],[77.659,14.1268],[77.6845,14.1708],[77.6601,14.2367],[77.579,14.226],[77.5171,14.1844]]]}},{"type":"Feature","properties":{"ST_NAME":"ANDHRA PRADESH","DIST_NAME":"SPSR NELLORE","AC_NO":null,"AC_NAME":"AC 158","PC_NAME":"SPSR NELLORE"},"geometry":{"type":"Polygon","coordinates":[[[79.9987,14.1894],[80.0242,14.1819],[80.0712,14.226],[80.1362,14.2461],[80.1382,14.2496],[80.0773,14.2532],[80.0228,14.183],[79.9987,14.1894]]]}},{"type":"Feature","properties":{"ST_NAME":"ANDHRA PRADESH","DIST_NAME":"ANANTHAPURAMU","AC_NO":275,"AC_NAME":"Madakasira (Sc)","PC_NAME":"ANANTHAPURAMU"},"geometry":{"type":"Polygon","coordinates":[[[77.4136,13.8976],[77.3546,13.9045],[77.361,13.9911],[77.3067,14.0323],[77.2751,14.0117],[77.1411,14.0039],[77.1274,14.0471],[77.0317,14.0569],[77.0224,14.1773],[76.9606,14.1818],[76.8907,14.1436],[76.9359,14.1289],[76.9484,14.0921],[76.9312,14.0302],[76.9992,13.9904],[77.0417,13.9334],[77.0185,13.8725],[76.9764,13.8174],[77.0127,13.7398],[77.0905,13.7672],[77.1731,13.7621],[77.1575,13.8061],[77.1857,13.8762],[77.3106,13.8629],[77.3369,13.8328],[77.432,13.8411],[77.4136,13.8976]]]}},{"type":"Feature","properties":{"ST_NAME":"ANDHRA PRADESH","DIST_NAME":"SPSR NELLORE","AC_NO":239,"AC_NAME":"Gudur (Sc)","PC_NAME":"SPSR NELLORE"},"geometry":{"type":"Polygon","coordinates":[[[79.8047,14.2586],[79.7811,14.2177],[79.8001,14.1767],[79.7559,14.1535],[79.7239,14.0904],[79.7588,14.0178],[79.7912,14.0407],[79.9765,14.0293],[79.9828,13.9611],[79.9346,13.9339],[80.0621,13.8419],[80.1115,13.8207],[80.2449,13.8076],[80.1438,14.0505],[80.1272,14.1502],[80.1362,14.2461],[80.0712,14.226],[80.0242,14.1819],[79.9987,14.1894],[79.9319,14.1403],[79.8687,14.1635],[79.8047,14.2586]]]}},{"type":"Feature","properties":{"ST_NAME":"ANDHRA PRADESH","DIST_NAME":"SPSR NELLORE","AC_NO":240,"AC_NAME":"Sullurpeta (Sc)","PC_NAME":"SPSR NELLORE"},"geometry":{"type":"Polygon","coordinates":[[[80.2683,13.5645],[80.2339,13.6571],[80.2552,13.7794],[80.2449,13.8076],[80.1115,13.8207],[80.0621,13.8419],[79.9346,13.9339],[79.9828,13.9611],[79.9765,14.0293],[79.7912,14.0407],[79.7588,14.0178],[79.7322,13.9677],[79.7859,13.9055],[79.8133,13.9105],[79.8814,13.8417],[79.8577,13.7406],[79.8855,13.7008],[79.9574,13.7082],[79.9574,13.667],[80.0001,13.6433],[80.038,13.539],[80.1822,13.4899],[80.2426,13.4709],[80.2683,13.5645]]]}},{"type":"Feature","properties":{"ST_NAME":"ANDHRA PRADESH","DIST_NAME":"CHITTOOR","AC_NO":281,"AC_NAME":"Thamballapalle","PC_NAME":"CHITTOOR"},"geometry":{"type":"Polygon","coordinates":[[[78.1257,13.7866],[78.1002,13.759],[78.1135,13.6925],[78.0662,13.6769],[78.0993,13.6433],[78.1561,13.6585],[78.2039,13.6284],[78.1962,13.566],[78.3262,13.5949],[78.3933,13.5914],[78.4014,13.5675],[78.4344,13.5857],[78.4989,13.5792],[78.5256,13.6547],[78.5706,13.6812],[78.5697,13.7269],[78.5369,13.7803],[78.5797,13.8575],[78.5872,13.9129],[78.5992,13.9601],[78.5445,13.991],[78.5039,13.9591],[78.4661,13.9949],[78.3875,13.9394],[78.3182,13.9208],[78.2632,13.8643],[78.2364,13.7796],[78.1257,13.7866]]]}},{"type":"Feature","properties":{"ST_NAME":"ANDHRA PRADESH","DIST_NAME":"ANANTHAPURAMU","AC_NO":276,"AC_NAME":"Hindupur","PC_NAME":"ANANTHAPURAMU"},"geometry":{"type":"Polygon","coordinates":[[[77.4515,13.8096],[77.4649,13.711],[77.4555,13.6827],[77.5868,13.7335],[77.6513,13.7841],[77.6715,13.7605],[77.7193,13.8003],[77.7815,13.8183],[77.8371,13.8699],[77.8138,13.9252],[77.8138,13.9269],[77.7156,13.9327],[77.6541,13.903],[77.6113,13.9444],[77.5417,13.9283],[77.529,13.8943],[77.4515,13.8096]]]}},{"type":"Feature","properties":{"ST_NAME":"ANDHRA PRADESH","DIST_NAME":"CHITTOOR","AC_NO":282,"AC_NAME":"Pileru","PC_NAME":"CHITTOOR"},"geometry":{"type":"Polygon","coordinates":[[[78.872,13.8975],[78.7459,13.8715],[78.6429,13.8678],[78.6499,13.9089],[78.5872,13.9129],[78.5797,13.8575],[78.5369,13.7803],[78.5697,13.7269],[78.5706,13.6812],[78.6418,13.578],[78.6813,13.5957],[78.7342,13.5708],[78.7898,13.5711],[78.842,13.6593],[78.8787,13.6241],[78.9009,13.5671],[78.9394,13.5739],[78.9905,13.6448],[78.9599,13.6742],[79.0477,13.7136],[78.9995,13.8057],[79.0272,13.8368],[78.9792,13.891],[78.872,13.8975]]]}},{"type":"Feature","properties":{"ST_NAME":"ANDHRA PRADESH","DIST_NAME":"CHITTOOR","AC_NO":287,"AC_NAME":"Srikalahasti","PC_NAME":"CHITTOOR"},"geometry":{"type":"Polygon","coordinates":[[[79.4433,13.8908],[79.4492,13.781],[79.3977,13.7617],[79.4329,13.6412],[79.4591,13.6189],[79.4515,13.5656],[79.4987,13.5543],[79.5561,13.5707],[79.6516,13.6134],[79.6864,13.6911],[79.7319,13.6766],[79.781,13.7075],[79.773,13.7512],[79.7317,13.7715],[79.7336,13.8616],[79.7286,13.9053],[79.6785,13.9242],[79.6685,13.836],[79.6095,13.8516],[79.5926,13.9236],[79.4783,13.9128],[79.4433,13.8908]]]}},{"type":"Feature","properties":{"ST_NAME":"ANDHRA PRADESH","DIST_NAME":"CHITTOOR","AC_NO":285,"AC_NAME":"Chandragiri","PC_NAME":"CHITTOOR"},"geometry":{"type":"Polygon","coordinates":[[[78.9792,13.891],[79.0272,13.8368],[78.9995,13.8057],[79.0477,13.7136],[79.0731,13.7078],[79.0401,13.5977],[79.156,13.5884],[79.1371,13.5033],[79.0886,13.5236],[78.9762,13.4839],[79.1395,13.3936],[79.2173,13.4048],[79.2391,13.4581],[79.4251,13.4847],[79.4257,13.5519],[79.4515,13.5656],[79.4591,13.6189],[79.4006,13.5956],[79.3539,13.6092],[79.2735,13.6047],[79.2395,13.6961],[79.2588,13.7609],[79.216,13.8126],[79.1572,13.854],[79.0965,13.8506],[79.0827,13.8793],[79.0025,13.9103],[78.9792,13.891]]]}},{"type":"Feature","properties":{"ST_NAME":"ANDHRA PRADESH","DIST_NAME":"CHITTOOR","AC_NO":288,"AC_NAME":"Satyavedu (Sc)","PC_NAME":"CHITTOOR"},"geometry":{"type":"Polygon","coordinates":[[[79.7985,13.2988],[79.9351,13.3534],[79.9579,13.3788],[79.9724,13.469],[80.038,13.539],[80.0001,13.6433],[79.9574,13.667],[79.9574,13.7082],[79.8855,13.7008],[79.8577,13.7406],[79.8814,13.8417],[79.8133,13.9105],[79.7859,13.9055],[79.7724,13.8528],[79.7336,13.8616],[79.7317,13.7715],[79.773,13.7512],[79.781,13.7075],[79.7319,13.6766],[79.6864,13.6911],[79.6516,13.6134],[79.5561,13.5707],[79.5413,13.5139],[79.5703,13.455],[79.5767,13.3965],[79.6692,13.4146],[79.7171,13.4043],[79.7192,13.357],[79.7619,13.3184],[79.7985,13.2988]]]}},{"type":"Feature","properties":{"ST_NAME":"ANDHRA PRADESH","DIST_NAME":"CHITTOOR","AC_NO":286,"AC_NAME":"Tirupati","PC_NAME":"CHITTOOR"},"geometry":{"type":"Polygon","coordinates":[[[79.2588,13.7609],[79.2395,13.6961],[79.2735,13.6047],[79.3539,13.6092],[79.4006,13.5956],[79.4591,13.6189],[79.4329,13.6412],[79.3977,13.7617],[79.3058,13.7242],[79.2588,13.7609]]]}},{"type":"Feature","properties":{"ST_NAME":"ANDHRA PRADESH","DIST_NAME":"CHITTOOR","AC_NO":284,"AC_NAME":"Punganur","PC_NAME":"CHITTOOR"},"geometry":{"type":"Polygon","coordinates":[[[78.7342,13.5708],[78.7306,13.5135],[78.6793,13.4818],[78.6158,13.4826],[78.5735,13.5051],[78.5031,13.4652],[78.5512,13.3475],[78.4835,13.3179],[78.5359,13.2732],[78.5743,13.2979],[78.6922,13.3671],[78.7541,13.3556],[78.8203,13.319],[78.8738,13.3137],[78.9147,13.3578],[78.9174,13.4372],[78.9762,13.4839],[79.0886,13.5236],[79.1371,13.5033],[79.156,13.5884],[79.0401,13.5977],[79.0731,13.7078],[79.0477,13.7136],[78.9599,13.6742],[78.9905,13.6448],[78.9394,13.5739],[78.9009,13.5671],[78.8787,13.6241],[78.842,13.6593],[78.7898,13.5711],[78.7342,13.5708]]]}},{"type":"Feature","properties":{"ST_NAME":"ANDHRA PRADESH","DIST_NAME":"CHITTOOR","AC_NO":283,"AC_NAME":"Madanapalle","PC_NAME":"CHITTOOR"},"geometry":{"type":"Polygon","coordinates":[[[78.4014,13.5675],[78.3744,13.5091],[78.3776,13.3632],[78.4012,13.3155],[78.4835,13.3179],[78.5512,13.3475],[78.5031,13.4652],[78.5735,13.5051],[78.6158,13.4826],[78.6793,13.4818],[78.7306,13.5135],[78.7342,13.5708],[78.6813,13.5957],[78.6418,13.578],[78.5706,13.6812],[78.5256,13.6547],[78.4989,13.5792],[78.4344,13.5857],[78.4014,13.5675]]]}},{"type":"Feature","properties":{"ST_NAME":"ANDHRA PRADESH","DIST_NAME":"CHITTOOR","AC_NO":289,"AC_NAME":"Nagari","PC_NAME":"CHITTOOR"},"geometry":{"type":"Polygon","coordinates":[[[79.6841,13.2433],[79.7642,13.2191],[79.7947,13.2421],[79.7306,13.2829],[79.7619,13.3184],[79.7192,13.357],[79.7171,13.4043],[79.6692,13.4146],[79.5767,13.3965],[79.5703,13.455],[79.5413,13.5139],[79.5561,13.5707],[79.4987,13.5543],[79.4515,13.5656],[79.4257,13.5519],[79.4251,13.4847],[79.4797,13.4636],[79.4637,13.4005],[79.4826,13.3408],[79.5259,13.3444],[79.5351,13.275],[79.6518,13.2919],[79.6841,13.2433]]]}},{"type":"Feature","properties":{"ST_NAME":"ANDHRA PRADESH","DIST_NAME":"CHITTOOR","AC_NO":292,"AC_NAME":"Puthalapattu (Sc)","PC_NAME":"CHITTOOR"},"geometry":{"type":"Polygon","coordinates":[[[79.0063,13.0825],[79.0582,13.1196],[79.0662,13.1853],[79.0293,13.2038],[79.1041,13.2634],[79.0933,13.3075],[79.1317,13.343],[79.1395,13.3936],[78.9762,13.4839],[78.9174,13.4372],[78.9147,13.3578],[78.8738,13.3137],[78.8203,13.319],[78.8025,13.266],[78.853,13.2148],[78.7937,13.1914],[78.8137,13.0891],[78.8889,13.0734],[79.0063,13.0825]]]}},{"type":"Feature","properties":{"ST_NAME":"ANDHRA PRADESH","DIST_NAME":"CHITTOOR","AC_NO":290,"AC_NAME":"Gangadhara Nellore (Sc)","PC_NAME":"CHITTOOR"},"geometry":{"type":"Polygon","coordinates":[[[79.4826,13.3408],[79.4637,13.4005],[79.4797,13.4636],[79.4251,13.4847],[79.2391,13.4581],[79.2173,13.4048],[79.1395,13.3936],[79.1317,13.343],[79.0933,13.3075],[79.1041,13.2634],[79.1225,13.2049],[79.1726,13.2111],[79.2144,13.1565],[79.2812,13.1537],[79.2838,13.1229],[79.329,13.1308],[79.3918,13.192],[79.4324,13.1964],[79.3983,13.3302],[79.4826,13.3408]]]}},{"type":"Feature","properties":{"ST_NAME":"ANDHRA PRADESH","DIST_NAME":"CHITTOOR","AC_NO":293,"AC_NAME":"Palamaner","PC_NAME":"CHITTOOR"},"geometry":{"type":"Polygon","coordinates":[[[78.8137,13.0891],[78.7937,13.1914],[78.853,13.2148],[78.8025,13.266],[78.8203,13.319],[78.7541,13.3556],[78.6922,13.3671],[78.5743,13.2979],[78.5849,13.2615],[78.567,13.201],[78.4977,13.0621],[78.4604,13.0263],[78.4111,12.9455],[78.4434,12.9215],[78.4749,12.9431],[78.6039,12.9223],[78.6336,12.9309],[78.6209,12.9913],[78.7046,13.0164],[78.7133,13.0691],[78.7943,13.0667],[78.8137,13.0891]]]}},{"type":"Feature","properties":{"ST_NAME":"ANDHRA PRADESH","DIST_NAME":"CHITTOOR","AC_NO":291,"AC_NAME":"Chittoor","PC_NAME":"CHITTOOR"},"geometry":{"type":"Polygon","coordinates":[[[79.2144,13.1565],[79.1726,13.2111],[79.1225,13.2049],[79.1041,13.2634],[79.0293,13.2038],[79.0662,13.1853],[79.0582,13.1196],[79.0063,13.0825],[79.0849,13.0274],[79.16,13.0203],[79.1853,13.0797],[79.2344,13.1053],[79.2144,13.1565]]]}},{"type":"Feature","properties":{"ST_NAME":"ANDHRA PRADESH","DIST_NAME":"CHITTOOR","AC_NO":294,"AC_NAME":"Kuppam","PC_NAME":"CHITTOOR"},"geometry":{"type":"Polygon","coordinates":[[[78.6336,12.9309],[78.6039,12.9223],[78.4749,12.9431],[78.4434,12.9215],[78.3886,12.9069],[78.3558,12.9408],[78.3124,12.8586],[78.2534,12.862],[78.2307,12.7609],[78.2408,12.7296],[78.3026,12.6663],[78.3714,12.6272],[78.4126,12.6269],[78.4742,12.6474],[78.5038,12.682],[78.555,12.6994],[78.5634,12.7354],[78.5925,12.7827],[78.6033,12.8428],[78.6336,12.9309]]]}},{"type":"Feature","properties":{"ST_NAME":"ANDHRA PRADESH","DIST_NAME":"EAST GODAVARI","AC_NO":30,"AC_NAME":"Yanam","PC_NAME":"EAST GODAVARI"},"geometry":{"type":"Polygon","coordinates":[[[82.226,16.7586],[82.2038,16.7177],[82.2435,16.7223],[82.226,16.7586]]]}}]}